<?xml version='1.0' encoding='UTF-8'?>
<gpx version="1.1" creator="https://www.komoot.de" xmlns="http://www.topografix.com/GPX/1/1" xmlns:xsi="http://www.w3.org/2001/XMLSchema-instance" xsi:schemaLocation="http://www.topografix.com/GPX/1/1 http://www.topografix.com/GPX/1/1/gpx.xsd">
  <metadata>
    <name>Col du Tourmalet - Versant Ouest par Luz</name>
    <author>
      <link href="https://www.komoot.de">
        <text>komoot</text>
        <type>text/html</type>
      </link>
    </author>
  </metadata>
  <wpt lat="42.908375" lon="0.145268">
    <name>Col du Tourmalet</name>
    <sym>Flag, Blue</sym>
  </wpt>
  <trk>
    <name>Col du Tourmalet - Versant Ouest par Luz</name>
    <trkseg>
      <trkpt lat="42.873227" lon="-0.003266">
        <ele>719.080258</ele>
        <time>2026-05-04T09:46:00.882Z</time>
      </trkpt>
      <trkpt lat="42.873137" lon="-0.003205">
        <ele>719.080258</ele>
        <time>2026-05-04T09:46:04.629Z</time>
      </trkpt>
      <trkpt lat="42.872972" lon="-0.002966">
        <ele>719.080258</ele>
        <time>2026-05-04T09:46:14.190Z</time>
      </trkpt>
      <trkpt lat="42.872621" lon="-0.002343">
        <ele>719.176082</ele>
        <time>2026-05-04T09:46:39.801Z</time>
      </trkpt>
      <trkpt lat="42.872292" lon="-0.001753">
        <ele>722.116998</ele>
        <time>2026-05-04T09:47:06.601Z</time>
      </trkpt>
      <trkpt lat="42.872296" lon="-0.001675">
        <ele>722.427171</ele>
        <time>2026-05-04T09:47:09.455Z</time>
      </trkpt>
      <trkpt lat="42.872596" lon="-0.000622">
        <ele>726.908811</ele>
        <time>2026-05-04T09:47:46.238Z</time>
      </trkpt>
      <trkpt lat="42.872625" lon="-0.000527">
        <ele>727.317048</ele>
        <time>2026-05-04T09:47:49.400Z</time>
      </trkpt>
      <trkpt lat="42.872791" lon="0.000078">
        <ele>729.424215</ele>
        <time>2026-05-04T09:48:07.861Z</time>
      </trkpt>
      <trkpt lat="42.872941" lon="0.000610">
        <ele>730.717220</ele>
        <time>2026-05-04T09:48:22.892Z</time>
      </trkpt>
      <trkpt lat="42.873007" lon="0.000857">
        <ele>731.313588</ele>
        <time>2026-05-04T09:48:29.424Z</time>
      </trkpt>
      <trkpt lat="42.873592" lon="0.003016">
        <ele>736.961936</ele>
        <time>2026-05-04T09:49:23.648Z</time>
      </trkpt>
      <trkpt lat="42.873847" lon="0.003948">
        <ele>739.666294</ele>
        <time>2026-05-04T09:49:50.911Z</time>
      </trkpt>
      <trkpt lat="42.873980" lon="0.004435">
        <ele>741.101092</ele>
        <time>2026-05-04T09:50:07.368Z</time>
      </trkpt>
      <trkpt lat="42.874083" lon="0.004813">
        <ele>743.193380</ele>
        <time>2026-05-04T09:50:20.766Z</time>
      </trkpt>
      <trkpt lat="42.874181" lon="0.005120">
        <ele>744.930676</ele>
        <time>2026-05-04T09:50:32.279Z</time>
      </trkpt>
      <trkpt lat="42.874395" lon="0.005477">
        <ele>747.323513</ele>
        <time>2026-05-04T09:50:48.948Z</time>
      </trkpt>
      <trkpt lat="42.874515" lon="0.005658">
        <ele>748.589807</ele>
        <time>2026-05-04T09:50:58.138Z</time>
      </trkpt>
      <trkpt lat="42.874710" lon="0.005950">
        <ele>750.639370</ele>
        <time>2026-05-04T09:51:13.274Z</time>
      </trkpt>
      <trkpt lat="42.874966" lon="0.006342">
        <ele>753.363436</ele>
        <time>2026-05-04T09:51:34.198Z</time>
      </trkpt>
      <trkpt lat="42.875016" lon="0.006403">
        <ele>753.855766</ele>
        <time>2026-05-04T09:51:37.913Z</time>
      </trkpt>
      <trkpt lat="42.876051" lon="0.007930">
        <ele>768.419397</ele>
        <time>2026-05-04T09:53:12.614Z</time>
      </trkpt>
      <trkpt lat="42.876636" lon="0.008783">
        <ele>775.493040</ele>
        <time>2026-05-04T09:54:04.589Z</time>
      </trkpt>
      <trkpt lat="42.876741" lon="0.009001">
        <ele>776.960437</ele>
        <time>2026-05-04T09:54:14.804Z</time>
      </trkpt>
      <trkpt lat="42.876849" lon="0.009262">
        <ele>778.646437</ele>
        <time>2026-05-04T09:54:25.991Z</time>
      </trkpt>
      <trkpt lat="42.877303" lon="0.010668">
        <ele>787.130876</ele>
        <time>2026-05-04T09:55:18.775Z</time>
      </trkpt>
      <trkpt lat="42.877926" lon="0.012307">
        <ele>796.862837</ele>
        <time>2026-05-04T09:56:29.540Z</time>
      </trkpt>
      <trkpt lat="42.878074" lon="0.012766">
        <ele>799.440276</ele>
        <time>2026-05-04T09:56:49.187Z</time>
      </trkpt>
      <trkpt lat="42.878160" lon="0.013267">
        <ele>802.052863</ele>
        <time>2026-05-04T09:57:08.952Z</time>
      </trkpt>
      <trkpt lat="42.878181" lon="0.015186">
        <ele>811.698823</ele>
        <time>2026-05-04T09:58:17.678Z</time>
      </trkpt>
      <trkpt lat="42.878259" lon="0.016297">
        <ele>817.020904</ele>
        <time>2026-05-04T09:58:55.663Z</time>
      </trkpt>
      <trkpt lat="42.878352" lon="0.017701">
        <ele>824.414068</ele>
        <time>2026-05-04T09:59:45.969Z</time>
      </trkpt>
      <trkpt lat="42.878434" lon="0.019607">
        <ele>836.801007</ele>
        <time>2026-05-04T10:01:07.935Z</time>
      </trkpt>
      <trkpt lat="42.878535" lon="0.022026">
        <ele>855.529656</ele>
        <time>2026-05-04T10:03:06.652Z</time>
      </trkpt>
      <trkpt lat="42.878546" lon="0.022251">
        <ele>857.217319</ele>
        <time>2026-05-04T10:03:17.442Z</time>
      </trkpt>
      <trkpt lat="42.878632" lon="0.022868">
        <ele>860.923599</ele>
        <time>2026-05-04T10:03:45.646Z</time>
      </trkpt>
      <trkpt lat="42.878781" lon="0.023407">
        <ele>864.323100</ele>
        <time>2026-05-04T10:04:08.915Z</time>
      </trkpt>
      <trkpt lat="42.879249" lon="0.025628">
        <ele>876.584759</ele>
        <time>2026-05-04T10:05:32.024Z</time>
      </trkpt>
      <trkpt lat="42.879347" lon="0.025950">
        <ele>878.206034</ele>
        <time>2026-05-04T10:05:43.036Z</time>
      </trkpt>
      <trkpt lat="42.879578" lon="0.026414">
        <ele>880.814413</ele>
        <time>2026-05-04T10:06:02.511Z</time>
      </trkpt>
      <trkpt lat="42.879835" lon="0.026736">
        <ele>883.034028</ele>
        <time>2026-05-04T10:06:18.904Z</time>
      </trkpt>
      <trkpt lat="42.881833" lon="0.029022">
        <ele>901.474485</ele>
        <time>2026-05-04T10:08:26.557Z</time>
      </trkpt>
      <trkpt lat="42.882228" lon="0.029472">
        <ele>905.634001</ele>
        <time>2026-05-04T10:08:55.146Z</time>
      </trkpt>
      <trkpt lat="42.883000" lon="0.030353">
        <ele>916.841873</ele>
        <time>2026-05-04T10:09:58.051Z</time>
      </trkpt>
      <trkpt lat="42.883124" lon="0.030529">
        <ele>919.281359</ele>
        <time>2026-05-04T10:10:11.354Z</time>
      </trkpt>
      <trkpt lat="42.883242" lon="0.030814">
        <ele>922.552035</ele>
        <time>2026-05-04T10:10:30.418Z</time>
      </trkpt>
      <trkpt lat="42.883329" lon="0.031305">
        <ele>927.599176</ele>
        <time>2026-05-04T10:11:02.335Z</time>
      </trkpt>
      <trkpt lat="42.883328" lon="0.031545">
        <ele>929.997134</ele>
        <time>2026-05-04T10:11:18.302Z</time>
      </trkpt>
      <trkpt lat="42.883304" lon="0.031658">
        <ele>931.172626</ele>
        <time>2026-05-04T10:11:26.148Z</time>
      </trkpt>
      <trkpt lat="42.883045" lon="0.032359">
        <ele>938.853430</ele>
        <time>2026-05-04T10:12:18.464Z</time>
      </trkpt>
      <trkpt lat="42.882972" lon="0.032754">
        <ele>942.795830</ele>
        <time>2026-05-04T10:12:44.047Z</time>
      </trkpt>
      <trkpt lat="42.882951" lon="0.033207">
        <ele>947.188593</ele>
        <time>2026-05-04T10:13:10.232Z</time>
      </trkpt>
      <trkpt lat="42.882974" lon="0.034363">
        <ele>958.014659</ele>
        <time>2026-05-04T10:14:05.713Z</time>
      </trkpt>
      <trkpt lat="42.882922" lon="0.034722">
        <ele>959.946750</ele>
        <time>2026-05-04T10:14:20.837Z</time>
      </trkpt>
      <trkpt lat="42.882751" lon="0.035311">
        <ele>963.291694</ele>
        <time>2026-05-04T10:14:46.488Z</time>
      </trkpt>
      <trkpt lat="42.882717" lon="0.035535">
        <ele>964.499458</ele>
        <time>2026-05-04T10:14:55.445Z</time>
      </trkpt>
      <trkpt lat="42.882697" lon="0.036521">
        <ele>969.707257</ele>
        <time>2026-05-04T10:15:29.056Z</time>
      </trkpt>
      <trkpt lat="42.882712" lon="0.036935">
        <ele>971.262108</ele>
        <time>2026-05-04T10:15:41.532Z</time>
      </trkpt>
      <trkpt lat="42.882766" lon="0.037280">
        <ele>972.256881</ele>
        <time>2026-05-04T10:15:50.747Z</time>
      </trkpt>
      <trkpt lat="42.882894" lon="0.037853">
        <ele>973.946029</ele>
        <time>2026-05-04T10:16:04.193Z</time>
      </trkpt>
      <trkpt lat="42.882962" lon="0.038051">
        <ele>974.562626</ele>
        <time>2026-05-04T10:16:08.371Z</time>
      </trkpt>
      <trkpt lat="42.883489" lon="0.039364">
        <ele>979.769220</ele>
        <time>2026-05-04T10:16:52.482Z</time>
      </trkpt>
      <trkpt lat="42.883739" lon="0.040009">
        <ele>983.354688</ele>
        <time>2026-05-04T10:17:18.534Z</time>
      </trkpt>
      <trkpt lat="42.883761" lon="0.040211">
        <ele>984.358169</ele>
        <time>2026-05-04T10:17:26.505Z</time>
      </trkpt>
      <trkpt lat="42.883715" lon="0.040311">
        <ele>984.938347</ele>
        <time>2026-05-04T10:17:31.167Z</time>
      </trkpt>
      <trkpt lat="42.883669" lon="0.040347">
        <ele>985.293945</ele>
        <time>2026-05-04T10:17:34.260Z</time>
      </trkpt>
      <trkpt lat="42.883557" lon="0.040367">
        <ele>986.051422</ele>
        <time>2026-05-04T10:17:40.671Z</time>
      </trkpt>
      <trkpt lat="42.883483" lon="0.040303">
        <ele>986.638923</ele>
        <time>2026-05-04T10:17:45.866Z</time>
      </trkpt>
      <trkpt lat="42.883250" lon="0.039886">
        <ele>989.215742</ele>
        <time>2026-05-04T10:18:08.354Z</time>
      </trkpt>
      <trkpt lat="42.883087" lon="0.039721">
        <ele>990.485246</ele>
        <time>2026-05-04T10:18:18.543Z</time>
      </trkpt>
      <trkpt lat="42.882724" lon="0.039479">
        <ele>992.960192</ele>
        <time>2026-05-04T10:18:35.774Z</time>
      </trkpt>
      <trkpt lat="42.882623" lon="0.039484">
        <ele>993.579341</ele>
        <time>2026-05-04T10:18:40.030Z</time>
      </trkpt>
      <trkpt lat="42.882580" lon="0.039517">
        <ele>993.881561</ele>
        <time>2026-05-04T10:18:42.064Z</time>
      </trkpt>
      <trkpt lat="42.882541" lon="0.039612">
        <ele>994.370378</ele>
        <time>2026-05-04T10:18:45.438Z</time>
      </trkpt>
      <trkpt lat="42.882554" lon="0.039734">
        <ele>994.923790</ele>
        <time>2026-05-04T10:18:49.203Z</time>
      </trkpt>
      <trkpt lat="42.882605" lon="0.039817">
        <ele>995.410033</ele>
        <time>2026-05-04T10:18:52.561Z</time>
      </trkpt>
      <trkpt lat="42.882945" lon="0.039930">
        <ele>997.553804</ele>
        <time>2026-05-04T10:19:06.919Z</time>
      </trkpt>
      <trkpt lat="42.883087" lon="0.040055">
        <ele>998.588985</ele>
        <time>2026-05-04T10:19:14.118Z</time>
      </trkpt>
      <trkpt lat="42.883731" lon="0.040968">
        <ele>1006.424323</ele>
        <time>2026-05-04T10:20:02.858Z</time>
      </trkpt>
      <trkpt lat="42.884237" lon="0.041669">
        <ele>1013.376785</ele>
        <time>2026-05-04T10:20:51.065Z</time>
      </trkpt>
      <trkpt lat="42.884587" lon="0.042127">
        <ele>1018.042540</ele>
        <time>2026-05-04T10:21:24.703Z</time>
      </trkpt>
      <trkpt lat="42.885216" lon="0.042876">
        <ele>1025.628386</ele>
        <time>2026-05-04T10:22:16.081Z</time>
      </trkpt>
      <trkpt lat="42.885537" lon="0.043453">
        <ele>1030.452264</ele>
        <time>2026-05-04T10:22:44.659Z</time>
      </trkpt>
      <trkpt lat="42.885826" lon="0.043908">
        <ele>1034.404417</ele>
        <time>2026-05-04T10:23:10.176Z</time>
      </trkpt>
      <trkpt lat="42.886174" lon="0.044358">
        <ele>1037.699964</ele>
        <time>2026-05-04T10:23:35.159Z</time>
      </trkpt>
      <trkpt lat="42.886392" lon="0.044578">
        <ele>1039.563775</ele>
        <time>2026-05-04T10:23:48.833Z</time>
      </trkpt>
      <trkpt lat="42.887095" lon="0.045165">
        <ele>1045.229177</ele>
        <time>2026-05-04T10:24:29.466Z</time>
      </trkpt>
      <trkpt lat="42.887980" lon="0.046046">
        <ele>1052.557911</ele>
        <time>2026-05-04T10:25:17.310Z</time>
      </trkpt>
      <trkpt lat="42.888312" lon="0.046240">
        <ele>1054.959500</ele>
        <time>2026-05-04T10:25:35.498Z</time>
      </trkpt>
      <trkpt lat="42.888781" lon="0.046423">
        <ele>1058.203237</ele>
        <time>2026-05-04T10:26:01.851Z</time>
      </trkpt>
      <trkpt lat="42.889541" lon="0.046820">
        <ele>1065.003803</ele>
        <time>2026-05-04T10:26:47.352Z</time>
      </trkpt>
      <trkpt lat="42.890072" lon="0.047045">
        <ele>1069.715616</ele>
        <time>2026-05-04T10:27:19.938Z</time>
      </trkpt>
      <trkpt lat="42.890273" lon="0.047205">
        <ele>1071.687510</ele>
        <time>2026-05-04T10:27:33.453Z</time>
      </trkpt>
      <trkpt lat="42.890363" lon="0.047310">
        <ele>1072.690872</ele>
        <time>2026-05-04T10:27:40.224Z</time>
      </trkpt>
      <trkpt lat="42.890433" lon="0.047403">
        <ele>1073.518714</ele>
        <time>2026-05-04T10:27:45.769Z</time>
      </trkpt>
      <trkpt lat="42.891064" lon="0.048392">
        <ele>1080.753893</ele>
        <time>2026-05-04T10:28:36.984Z</time>
      </trkpt>
      <trkpt lat="42.891128" lon="0.048580">
        <ele>1081.892549</ele>
        <time>2026-05-04T10:28:44.250Z</time>
      </trkpt>
      <trkpt lat="42.891074" lon="0.048742">
        <ele>1082.870132</ele>
        <time>2026-05-04T10:28:50.679Z</time>
      </trkpt>
      <trkpt lat="42.890976" lon="0.048793">
        <ele>1083.656433</ele>
        <time>2026-05-04T10:28:55.941Z</time>
      </trkpt>
      <trkpt lat="42.890918" lon="0.048784">
        <ele>1084.094063</ele>
        <time>2026-05-04T10:28:58.931Z</time>
      </trkpt>
      <trkpt lat="42.890744" lon="0.048630">
        <ele>1085.648795</ele>
        <time>2026-05-04T10:29:09.421Z</time>
      </trkpt>
      <trkpt lat="42.890504" lon="0.048268">
        <ele>1088.603229</ele>
        <time>2026-05-04T10:29:27.226Z</time>
      </trkpt>
      <trkpt lat="42.890383" lon="0.048079">
        <ele>1090.339527</ele>
        <time>2026-05-04T10:29:36.691Z</time>
      </trkpt>
      <trkpt lat="42.890293" lon="0.048029">
        <ele>1091.257008</ele>
        <time>2026-05-04T10:29:41.716Z</time>
      </trkpt>
      <trkpt lat="42.890178" lon="0.048071">
        <ele>1092.381044</ele>
        <time>2026-05-04T10:29:48.126Z</time>
      </trkpt>
      <trkpt lat="42.890127" lon="0.048171">
        <ele>1093.223924</ele>
        <time>2026-05-04T10:29:52.898Z</time>
      </trkpt>
      <trkpt lat="42.890117" lon="0.048241">
        <ele>1093.717290</ele>
        <time>2026-05-04T10:29:55.938Z</time>
      </trkpt>
      <trkpt lat="42.890144" lon="0.048367">
        <ele>1094.625450</ele>
        <time>2026-05-04T10:30:01.508Z</time>
      </trkpt>
      <trkpt lat="42.890453" lon="0.048772">
        <ele>1098.670435</ele>
        <time>2026-05-04T10:30:28.254Z</time>
      </trkpt>
      <trkpt lat="42.890504" lon="0.048882">
        <ele>1099.570956</ele>
        <time>2026-05-04T10:30:34.649Z</time>
      </trkpt>
      <trkpt lat="42.890549" lon="0.049114">
        <ele>1101.231169</ele>
        <time>2026-05-04T10:30:47.017Z</time>
      </trkpt>
      <trkpt lat="42.890562" lon="0.049450">
        <ele>1103.558776</ele>
        <time>2026-05-04T10:31:05.066Z</time>
      </trkpt>
      <trkpt lat="42.890597" lon="0.049647">
        <ele>1104.851932</ele>
        <time>2026-05-04T10:31:15.431Z</time>
      </trkpt>
      <trkpt lat="42.890673" lon="0.049827">
        <ele>1106.064825</ele>
        <time>2026-05-04T10:31:25.768Z</time>
      </trkpt>
      <trkpt lat="42.890686" lon="0.049846">
        <ele>1106.216600</ele>
        <time>2026-05-04T10:31:26.931Z</time>
      </trkpt>
      <trkpt lat="42.890898" lon="0.050162">
        <ele>1108.718082</ele>
        <time>2026-05-04T10:31:47.071Z</time>
      </trkpt>
      <trkpt lat="42.891154" lon="0.050522">
        <ele>1111.647031</ele>
        <time>2026-05-04T10:32:07.987Z</time>
      </trkpt>
      <trkpt lat="42.891268" lon="0.050639">
        <ele>1112.783605</ele>
        <time>2026-05-04T10:32:15.185Z</time>
      </trkpt>
      <trkpt lat="42.891851" lon="0.050951">
        <ele>1117.773615</ele>
        <time>2026-05-04T10:32:41.135Z</time>
      </trkpt>
      <trkpt lat="42.892061" lon="0.051145">
        <ele>1120.110326</ele>
        <time>2026-05-04T10:32:51.706Z</time>
      </trkpt>
      <trkpt lat="42.892403" lon="0.051829">
        <ele>1126.218290</ele>
        <time>2026-05-04T10:33:21.798Z</time>
      </trkpt>
      <trkpt lat="42.892528" lon="0.052082">
        <ele>1128.469039</ele>
        <time>2026-05-04T10:33:35.976Z</time>
      </trkpt>
      <trkpt lat="42.892775" lon="0.052583">
        <ele>1132.923066</ele>
        <time>2026-05-04T10:34:08.388Z</time>
      </trkpt>
      <trkpt lat="42.892883" lon="0.052931">
        <ele>1135.710610</ele>
        <time>2026-05-04T10:34:30.611Z</time>
      </trkpt>
      <trkpt lat="42.892981" lon="0.053579">
        <ele>1141.342514</ele>
        <time>2026-05-04T10:35:11.162Z</time>
      </trkpt>
      <trkpt lat="42.893074" lon="0.053928">
        <ele>1144.611080</ele>
        <time>2026-05-04T10:35:33.618Z</time>
      </trkpt>
      <trkpt lat="42.893224" lon="0.054315">
        <ele>1148.464526</ele>
        <time>2026-05-04T10:35:57.824Z</time>
      </trkpt>
      <trkpt lat="42.893592" lon="0.055137">
        <ele>1156.943080</ele>
        <time>2026-05-04T10:36:40.466Z</time>
      </trkpt>
      <trkpt lat="42.894129" lon="0.056380">
        <ele>1166.459149</ele>
        <time>2026-05-04T10:37:43.521Z</time>
      </trkpt>
      <trkpt lat="42.894204" lon="0.056628">
        <ele>1168.157029</ele>
        <time>2026-05-04T10:37:56.102Z</time>
      </trkpt>
      <trkpt lat="42.894475" lon="0.057476">
        <ele>1173.960634</ele>
        <time>2026-05-04T10:38:31.969Z</time>
      </trkpt>
      <trkpt lat="42.894653" lon="0.057791">
        <ele>1175.697622</ele>
        <time>2026-05-04T10:38:45.532Z</time>
      </trkpt>
      <trkpt lat="42.894877" lon="0.058121">
        <ele>1177.661908</ele>
        <time>2026-05-04T10:39:01.073Z</time>
      </trkpt>
      <trkpt lat="42.895030" lon="0.058290">
        <ele>1178.834941</ele>
        <time>2026-05-04T10:39:10.181Z</time>
      </trkpt>
      <trkpt lat="42.895206" lon="0.058425">
        <ele>1180.038162</ele>
        <time>2026-05-04T10:39:18.921Z</time>
      </trkpt>
      <trkpt lat="42.895287" lon="0.058478">
        <ele>1180.573517</ele>
        <time>2026-05-04T10:39:22.975Z</time>
      </trkpt>
      <trkpt lat="42.895589" lon="0.058679">
        <ele>1182.575980</ele>
        <time>2026-05-04T10:39:38.630Z</time>
      </trkpt>
      <trkpt lat="42.895639" lon="0.058816">
        <ele>1183.244271</ele>
        <time>2026-05-04T10:39:43.686Z</time>
      </trkpt>
      <trkpt lat="42.895640" lon="0.058889">
        <ele>1183.563061</ele>
        <time>2026-05-04T10:39:45.922Z</time>
      </trkpt>
      <trkpt lat="42.895595" lon="0.059025">
        <ele>1184.214626</ele>
        <time>2026-05-04T10:39:50.663Z</time>
      </trkpt>
      <trkpt lat="42.895509" lon="0.059109">
        <ele>1184.866860</ele>
        <time>2026-05-04T10:39:54.784Z</time>
      </trkpt>
      <trkpt lat="42.895374" lon="0.059105">
        <ele>1185.735198</ele>
        <time>2026-05-04T10:40:00.203Z</time>
      </trkpt>
      <trkpt lat="42.895235" lon="0.058980">
        <ele>1186.805602</ele>
        <time>2026-05-04T10:40:06.820Z</time>
      </trkpt>
      <trkpt lat="42.895085" lon="0.058964">
        <ele>1187.773136</ele>
        <time>2026-05-04T10:40:13.285Z</time>
      </trkpt>
      <trkpt lat="42.894990" lon="0.059039">
        <ele>1188.478865</ele>
        <time>2026-05-04T10:40:18.449Z</time>
      </trkpt>
      <trkpt lat="42.894939" lon="0.059174">
        <ele>1189.194443</ele>
        <time>2026-05-04T10:40:23.836Z</time>
      </trkpt>
      <trkpt lat="42.894942" lon="0.059284">
        <ele>1189.713022</ele>
        <time>2026-05-04T10:40:27.430Z</time>
      </trkpt>
      <trkpt lat="42.894943" lon="0.059319">
        <ele>1189.878036</ele>
        <time>2026-05-04T10:40:28.874Z</time>
      </trkpt>
      <trkpt lat="42.894972" lon="0.059406">
        <ele>1190.328332</ele>
        <time>2026-05-04T10:40:32.712Z</time>
      </trkpt>
      <trkpt lat="42.895029" lon="0.059470">
        <ele>1190.802952</ele>
        <time>2026-05-04T10:40:36.205Z</time>
      </trkpt>
      <trkpt lat="42.895105" lon="0.059509">
        <ele>1191.325075</ele>
        <time>2026-05-04T10:40:40.689Z</time>
      </trkpt>
      <trkpt lat="42.895207" lon="0.059509">
        <ele>1191.980998</ele>
        <time>2026-05-04T10:40:45.748Z</time>
      </trkpt>
      <trkpt lat="42.895470" lon="0.059456">
        <ele>1193.690584</ele>
        <time>2026-05-04T10:40:58.807Z</time>
      </trkpt>
      <trkpt lat="42.895610" lon="0.059445">
        <ele>1194.592361</ele>
        <time>2026-05-04T10:41:06.198Z</time>
      </trkpt>
      <trkpt lat="42.895756" lon="0.059486">
        <ele>1195.550895</ele>
        <time>2026-05-04T10:41:13.892Z</time>
      </trkpt>
      <trkpt lat="42.895919" lon="0.059678">
        <ele>1197.360490</ele>
        <time>2026-05-04T10:41:23.904Z</time>
      </trkpt>
      <trkpt lat="42.896002" lon="0.059911">
        <ele>1199.227693</ele>
        <time>2026-05-04T10:41:33.088Z</time>
      </trkpt>
      <trkpt lat="42.896017" lon="0.060006">
        <ele>1199.928070</ele>
        <time>2026-05-04T10:41:36.795Z</time>
      </trkpt>
      <trkpt lat="42.896022" lon="0.060111">
        <ele>1200.686392</ele>
        <time>2026-05-04T10:41:41.262Z</time>
      </trkpt>
      <trkpt lat="42.896022" lon="0.060284">
        <ele>1201.933186</ele>
        <time>2026-05-04T10:41:49.039Z</time>
      </trkpt>
      <trkpt lat="42.896116" lon="0.060930">
        <ele>1206.679789</ele>
        <time>2026-05-04T10:42:24.530Z</time>
      </trkpt>
      <trkpt lat="42.896127" lon="0.061123">
        <ele>1208.074922</ele>
        <time>2026-05-04T10:42:34.859Z</time>
      </trkpt>
      <trkpt lat="42.896130" lon="0.061200">
        <ele>1208.630637</ele>
        <time>2026-05-04T10:42:38.799Z</time>
      </trkpt>
      <trkpt lat="42.896144" lon="0.062093">
        <ele>1214.838310</ele>
        <time>2026-05-04T10:43:19.526Z</time>
      </trkpt>
      <trkpt lat="42.896189" lon="0.062612">
        <ele>1217.907844</ele>
        <time>2026-05-04T10:43:41.020Z</time>
      </trkpt>
      <trkpt lat="42.896226" lon="0.063047">
        <ele>1220.479903</ele>
        <time>2026-05-04T10:43:58.038Z</time>
      </trkpt>
      <trkpt lat="42.896232" lon="0.063132">
        <ele>1220.981448</ele>
        <time>2026-05-04T10:44:01.240Z</time>
      </trkpt>
      <trkpt lat="42.896233" lon="0.063272">
        <ele>1221.803752</ele>
        <time>2026-05-04T10:44:06.589Z</time>
      </trkpt>
      <trkpt lat="42.896247" lon="0.063393">
        <ele>1222.523233</ele>
        <time>2026-05-04T10:44:11.158Z</time>
      </trkpt>
      <trkpt lat="42.896333" lon="0.063638">
        <ele>1224.118852</ele>
        <time>2026-05-04T10:44:21.266Z</time>
      </trkpt>
      <trkpt lat="42.896559" lon="0.064270">
        <ele>1228.249613</ele>
        <time>2026-05-04T10:44:47.292Z</time>
      </trkpt>
      <trkpt lat="42.896627" lon="0.064516">
        <ele>1229.968304</ele>
        <time>2026-05-04T10:44:57.112Z</time>
      </trkpt>
      <trkpt lat="42.896675" lon="0.064593">
        <ele>1230.629192</ele>
        <time>2026-05-04T10:45:01.181Z</time>
      </trkpt>
      <trkpt lat="42.897099" lon="0.065699">
        <ele>1238.788822</ele>
        <time>2026-05-04T10:45:53.712Z</time>
      </trkpt>
      <trkpt lat="42.897136" lon="0.065733">
        <ele>1239.186802</ele>
        <time>2026-05-04T10:45:56.311Z</time>
      </trkpt>
      <trkpt lat="42.897150" lon="0.065874">
        <ele>1240.116895</ele>
        <time>2026-05-04T10:46:02.678Z</time>
      </trkpt>
      <trkpt lat="42.897181" lon="0.065966">
        <ele>1240.778830</ele>
        <time>2026-05-04T10:46:07.177Z</time>
      </trkpt>
      <trkpt lat="42.897551" lon="0.067011">
        <ele>1249.140836</ele>
        <time>2026-05-04T10:47:01.495Z</time>
      </trkpt>
      <trkpt lat="42.897672" lon="0.067359">
        <ele>1252.138500</ele>
        <time>2026-05-04T10:47:20.294Z</time>
      </trkpt>
      <trkpt lat="42.897733" lon="0.067614">
        <ele>1254.226006</ele>
        <time>2026-05-04T10:47:33.245Z</time>
      </trkpt>
      <trkpt lat="42.897736" lon="0.067634">
        <ele>1254.384873</ele>
        <time>2026-05-04T10:47:34.264Z</time>
      </trkpt>
      <trkpt lat="42.897747" lon="0.067696">
        <ele>1254.881299</ele>
        <time>2026-05-04T10:47:37.429Z</time>
      </trkpt>
      <trkpt lat="42.897822" lon="0.068258">
        <ele>1259.326703</ele>
        <time>2026-05-04T10:48:05.244Z</time>
      </trkpt>
      <trkpt lat="42.898060" lon="0.069583">
        <ele>1269.773586</ele>
        <time>2026-05-04T10:49:08.995Z</time>
      </trkpt>
      <trkpt lat="42.898204" lon="0.070431">
        <ele>1276.371973</ele>
        <time>2026-05-04T10:49:49.793Z</time>
      </trkpt>
      <trkpt lat="42.898370" lon="0.071319">
        <ele>1283.319142</ele>
        <time>2026-05-04T10:50:32.831Z</time>
      </trkpt>
      <trkpt lat="42.898427" lon="0.072328">
        <ele>1290.992098</ele>
        <time>2026-05-04T10:51:19.378Z</time>
      </trkpt>
      <trkpt lat="42.898522" lon="0.072792">
        <ele>1294.644964</ele>
        <time>2026-05-04T10:51:41.637Z</time>
      </trkpt>
      <trkpt lat="42.898621" lon="0.073544">
        <ele>1300.437954</ele>
        <time>2026-05-04T10:52:22.216Z</time>
      </trkpt>
      <trkpt lat="42.898663" lon="0.074052">
        <ele>1302.634155</ele>
        <time>2026-05-04T10:52:44.599Z</time>
      </trkpt>
      <trkpt lat="42.898688" lon="0.074791">
        <ele>1305.685456</ele>
        <time>2026-05-04T10:53:08.461Z</time>
      </trkpt>
      <trkpt lat="42.898756" lon="0.075038">
        <ele>1306.773790</ele>
        <time>2026-05-04T10:53:15.783Z</time>
      </trkpt>
      <trkpt lat="42.899119" lon="0.075702">
        <ele>1310.191050</ele>
        <time>2026-05-04T10:53:38.132Z</time>
      </trkpt>
      <trkpt lat="42.899143" lon="0.075746">
        <ele>1310.417312</ele>
        <time>2026-05-04T10:53:39.415Z</time>
      </trkpt>
      <trkpt lat="42.899195" lon="0.075843">
        <ele>1310.988052</ele>
        <time>2026-05-04T10:53:42.051Z</time>
      </trkpt>
      <trkpt lat="42.899374" lon="0.076184">
        <ele>1313.550021</ele>
        <time>2026-05-04T10:53:50.031Z</time>
      </trkpt>
      <trkpt lat="42.899476" lon="0.076467">
        <ele>1315.476177</ele>
        <time>2026-05-04T10:53:57.308Z</time>
      </trkpt>
      <trkpt lat="42.899559" lon="0.077110">
        <ele>1319.463495</ele>
        <time>2026-05-04T10:54:21.511Z</time>
      </trkpt>
      <trkpt lat="42.899686" lon="0.077596">
        <ele>1322.614695</ele>
        <time>2026-05-04T10:54:47.058Z</time>
      </trkpt>
      <trkpt lat="42.899791" lon="0.078133">
        <ele>1326.236405</ele>
        <time>2026-05-04T10:55:19.936Z</time>
      </trkpt>
      <trkpt lat="42.900023" lon="0.078837">
        <ele>1335.120292</ele>
        <time>2026-05-04T10:56:11.462Z</time>
      </trkpt>
      <trkpt lat="42.900600" lon="0.080541">
        <ele>1355.543211</ele>
        <time>2026-05-04T10:58:16.309Z</time>
      </trkpt>
      <trkpt lat="42.900995" lon="0.081979">
        <ele>1365.532025</ele>
        <time>2026-05-04T10:59:18.170Z</time>
      </trkpt>
      <trkpt lat="42.901373" lon="0.082748">
        <ele>1371.674033</ele>
        <time>2026-05-04T10:59:46.196Z</time>
      </trkpt>
      <trkpt lat="42.901481" lon="0.083003">
        <ele>1373.734021</ele>
        <time>2026-05-04T10:59:56.759Z</time>
      </trkpt>
      <trkpt lat="42.901559" lon="0.083262">
        <ele>1375.692461</ele>
        <time>2026-05-04T11:00:07.416Z</time>
      </trkpt>
      <trkpt lat="42.901582" lon="0.083480">
        <ele>1377.232791</ele>
        <time>2026-05-04T11:00:16.339Z</time>
      </trkpt>
      <trkpt lat="42.901576" lon="0.084057">
        <ele>1381.268485</ele>
        <time>2026-05-04T11:00:43.452Z</time>
      </trkpt>
      <trkpt lat="42.901691" lon="0.084826">
        <ele>1386.757459</ele>
        <time>2026-05-04T11:01:27.645Z</time>
      </trkpt>
      <trkpt lat="42.901856" lon="0.086503">
        <ele>1398.581188</ele>
        <time>2026-05-04T11:02:51.526Z</time>
      </trkpt>
      <trkpt lat="42.901893" lon="0.086757">
        <ele>1400.390782</ele>
        <time>2026-05-04T11:03:00.468Z</time>
      </trkpt>
      <trkpt lat="42.902019" lon="0.087303">
        <ele>1404.367958</ele>
        <time>2026-05-04T11:03:19.212Z</time>
      </trkpt>
      <trkpt lat="42.902276" lon="0.088224">
        <ele>1409.355785</ele>
        <time>2026-05-04T11:03:50.653Z</time>
      </trkpt>
      <trkpt lat="42.902720" lon="0.090000">
        <ele>1418.473925</ele>
        <time>2026-05-04T11:05:04.590Z</time>
      </trkpt>
      <trkpt lat="42.902743" lon="0.090240">
        <ele>1419.479721</ele>
        <time>2026-05-04T11:05:14.530Z</time>
      </trkpt>
      <trkpt lat="42.902675" lon="0.090910">
        <ele>1422.290440</ele>
        <time>2026-05-04T11:05:37.866Z</time>
      </trkpt>
      <trkpt lat="42.902691" lon="0.091371">
        <ele>1424.208232</ele>
        <time>2026-05-04T11:05:50.810Z</time>
      </trkpt>
      <trkpt lat="42.902740" lon="0.091656">
        <ele>1425.424706</ele>
        <time>2026-05-04T11:05:58.790Z</time>
      </trkpt>
      <trkpt lat="42.902948" lon="0.092514">
        <ele>1429.071118</ele>
        <time>2026-05-04T11:06:22.781Z</time>
      </trkpt>
      <trkpt lat="42.903270" lon="0.094229">
        <ele>1436.070027</ele>
        <time>2026-05-04T11:07:21.433Z</time>
      </trkpt>
      <trkpt lat="42.903285" lon="0.094386">
        <ele>1436.697022</ele>
        <time>2026-05-04T11:07:27.559Z</time>
      </trkpt>
      <trkpt lat="42.903311" lon="0.095000">
        <ele>1439.180088</ele>
        <time>2026-05-04T11:07:51.128Z</time>
      </trkpt>
      <trkpt lat="42.903354" lon="0.097349">
        <ele>1447.574481</ele>
        <time>2026-05-04T11:09:05.178Z</time>
      </trkpt>
      <trkpt lat="42.903496" lon="0.098683">
        <ele>1450.197264</ele>
        <time>2026-05-04T11:09:33.550Z</time>
      </trkpt>
      <trkpt lat="42.903530" lon="0.099307">
        <ele>1451.387058</ele>
        <time>2026-05-04T11:09:48.762Z</time>
      </trkpt>
      <trkpt lat="42.903538" lon="0.099951">
        <ele>1452.200001</ele>
        <time>2026-05-04T11:10:01.839Z</time>
      </trkpt>
      <trkpt lat="42.903484" lon="0.100208">
        <ele>1452.537456</ele>
        <time>2026-05-04T11:10:06.526Z</time>
      </trkpt>
      <trkpt lat="42.903283" lon="0.100578">
        <ele>1453.118865</ele>
        <time>2026-05-04T11:10:15.465Z</time>
      </trkpt>
      <trkpt lat="42.903198" lon="0.100858">
        <ele>1453.501416</ele>
        <time>2026-05-04T11:10:21.729Z</time>
      </trkpt>
      <trkpt lat="42.903224" lon="0.101115">
        <ele>1453.828870</ele>
        <time>2026-05-04T11:10:27.033Z</time>
      </trkpt>
      <trkpt lat="42.903251" lon="0.101247">
        <ele>1454.001849</ele>
        <time>2026-05-04T11:10:30.379Z</time>
      </trkpt>
      <trkpt lat="42.903335" lon="0.101706">
        <ele>1454.889273</ele>
        <time>2026-05-04T11:10:41.280Z</time>
      </trkpt>
      <trkpt lat="42.903385" lon="0.102170">
        <ele>1456.530256</ele>
        <time>2026-05-04T11:10:52.106Z</time>
      </trkpt>
      <trkpt lat="42.903457" lon="0.102718">
        <ele>1458.478275</ele>
        <time>2026-05-04T11:11:08.736Z</time>
      </trkpt>
      <trkpt lat="42.903557" lon="0.102966">
        <ele>1459.468797</ele>
        <time>2026-05-04T11:11:18.918Z</time>
      </trkpt>
      <trkpt lat="42.903746" lon="0.103336">
        <ele>1461.047099</ele>
        <time>2026-05-04T11:11:34.815Z</time>
      </trkpt>
      <trkpt lat="42.903890" lon="0.103531">
        <ele>1462.015937</ele>
        <time>2026-05-04T11:11:44.430Z</time>
      </trkpt>
      <trkpt lat="42.904001" lon="0.103628">
        <ele>1462.645472</ele>
        <time>2026-05-04T11:11:50.650Z</time>
      </trkpt>
      <trkpt lat="42.904072" lon="0.103663">
        <ele>1463.006050</ele>
        <time>2026-05-04T11:11:54.195Z</time>
      </trkpt>
      <trkpt lat="42.904215" lon="0.103669">
        <ele>1463.747392</ele>
        <time>2026-05-04T11:12:00.754Z</time>
      </trkpt>
      <trkpt lat="42.904369" lon="0.103595">
        <ele>1464.595438</ele>
        <time>2026-05-04T11:12:08.198Z</time>
      </trkpt>
      <trkpt lat="42.904490" lon="0.103464">
        <ele>1465.397612</ele>
        <time>2026-05-04T11:12:15.019Z</time>
      </trkpt>
      <trkpt lat="42.905152" lon="0.102658">
        <ele>1470.005143</ele>
        <time>2026-05-04T11:12:50.054Z</time>
      </trkpt>
      <trkpt lat="42.905258" lon="0.102354">
        <ele>1471.286173</ele>
        <time>2026-05-04T11:13:00.655Z</time>
      </trkpt>
      <trkpt lat="42.905271" lon="0.101697">
        <ele>1474.198084</ele>
        <time>2026-05-04T11:13:22.588Z</time>
      </trkpt>
      <trkpt lat="42.905304" lon="0.101628">
        <ele>1474.602605</ele>
        <time>2026-05-04T11:13:25.416Z</time>
      </trkpt>
      <trkpt lat="42.905381" lon="0.101569">
        <ele>1475.194359</ele>
        <time>2026-05-04T11:13:29.736Z</time>
      </trkpt>
      <trkpt lat="42.905461" lon="0.101585">
        <ele>1475.736220</ele>
        <time>2026-05-04T11:13:33.654Z</time>
      </trkpt>
      <trkpt lat="42.905503" lon="0.101632">
        <ele>1476.100167</ele>
        <time>2026-05-04T11:13:36.339Z</time>
      </trkpt>
      <trkpt lat="42.905586" lon="0.101837">
        <ele>1477.249986</ele>
        <time>2026-05-04T11:13:44.973Z</time>
      </trkpt>
      <trkpt lat="42.905643" lon="0.102157">
        <ele>1478.866603</ele>
        <time>2026-05-04T11:13:57.262Z</time>
      </trkpt>
      <trkpt lat="42.905649" lon="0.102639">
        <ele>1481.233015</ele>
        <time>2026-05-04T11:14:15.434Z</time>
      </trkpt>
      <trkpt lat="42.905588" lon="0.103323">
        <ele>1484.630699</ele>
        <time>2026-05-04T11:14:41.149Z</time>
      </trkpt>
      <trkpt lat="42.905501" lon="0.103836">
        <ele>1487.420804</ele>
        <time>2026-05-04T11:15:00.232Z</time>
      </trkpt>
      <trkpt lat="42.905422" lon="0.104063">
        <ele>1488.752454</ele>
        <time>2026-05-04T11:15:09.469Z</time>
      </trkpt>
      <trkpt lat="42.905227" lon="0.104342">
        <ele>1490.795795</ele>
        <time>2026-05-04T11:15:23.841Z</time>
      </trkpt>
      <trkpt lat="42.905193" lon="0.104430">
        <ele>1491.322967</ele>
        <time>2026-05-04T11:15:27.568Z</time>
      </trkpt>
      <trkpt lat="42.905205" lon="0.104557">
        <ele>1492.001474</ele>
        <time>2026-05-04T11:15:32.314Z</time>
      </trkpt>
      <trkpt lat="42.905265" lon="0.104629">
        <ele>1492.579339</ele>
        <time>2026-05-04T11:15:36.435Z</time>
      </trkpt>
      <trkpt lat="42.905370" lon="0.104634">
        <ele>1493.339356</ele>
        <time>2026-05-04T11:15:41.806Z</time>
      </trkpt>
      <trkpt lat="42.905490" lon="0.104541">
        <ele>1494.337534</ele>
        <time>2026-05-04T11:15:48.996Z</time>
      </trkpt>
      <trkpt lat="42.905699" lon="0.104190">
        <ele>1496.734344</ele>
        <time>2026-05-04T11:16:06.605Z</time>
      </trkpt>
      <trkpt lat="42.905909" lon="0.103758">
        <ele>1499.713595</ele>
        <time>2026-05-04T11:16:26.740Z</time>
      </trkpt>
      <trkpt lat="42.906093" lon="0.103158">
        <ele>1503.550861</ele>
        <time>2026-05-04T11:16:51.266Z</time>
      </trkpt>
      <trkpt lat="42.906317" lon="0.102625">
        <ele>1507.175961</ele>
        <time>2026-05-04T11:17:17.000Z</time>
      </trkpt>
      <trkpt lat="42.906354" lon="0.102388">
        <ele>1508.605487</ele>
        <time>2026-05-04T11:17:27.115Z</time>
      </trkpt>
      <trkpt lat="42.906354" lon="0.102010">
        <ele>1510.835400</ele>
        <time>2026-05-04T11:17:42.524Z</time>
      </trkpt>
      <trkpt lat="42.906408" lon="0.101907">
        <ele>1511.582630</ele>
        <time>2026-05-04T11:17:47.544Z</time>
      </trkpt>
      <trkpt lat="42.906494" lon="0.101886">
        <ele>1512.262760</ele>
        <time>2026-05-04T11:17:52.509Z</time>
      </trkpt>
      <trkpt lat="42.906561" lon="0.101956">
        <ele>1512.898537</ele>
        <time>2026-05-04T11:17:57.063Z</time>
      </trkpt>
      <trkpt lat="42.906589" lon="0.102098">
        <ele>1513.710242</ele>
        <time>2026-05-04T11:18:02.964Z</time>
      </trkpt>
      <trkpt lat="42.906442" lon="0.103168">
        <ele>1519.719333</ele>
        <time>2026-05-04T11:18:47.778Z</time>
      </trkpt>
      <trkpt lat="42.906281" lon="0.104693">
        <ele>1528.312144</ele>
        <time>2026-05-04T11:19:41.725Z</time>
      </trkpt>
      <trkpt lat="42.906279" lon="0.105403">
        <ele>1532.356985</ele>
        <time>2026-05-04T11:20:07.045Z</time>
      </trkpt>
      <trkpt lat="42.906247" lon="0.105577">
        <ele>1533.379016</ele>
        <time>2026-05-04T11:20:13.809Z</time>
      </trkpt>
      <trkpt lat="42.906155" lon="0.105848">
        <ele>1535.080642</ele>
        <time>2026-05-04T11:20:25.348Z</time>
      </trkpt>
      <trkpt lat="42.906144" lon="0.106053">
        <ele>1536.251642</ele>
        <time>2026-05-04T11:20:33.563Z</time>
      </trkpt>
      <trkpt lat="42.906342" lon="0.107129">
        <ele>1543.718068</ele>
        <time>2026-05-04T11:21:24.418Z</time>
      </trkpt>
      <trkpt lat="42.906370" lon="0.108180">
        <ele>1551.919134</ele>
        <time>2026-05-04T11:22:17.970Z</time>
      </trkpt>
      <trkpt lat="42.906377" lon="0.108431">
        <ele>1553.877837</ele>
        <time>2026-05-04T11:22:30.207Z</time>
      </trkpt>
      <trkpt lat="42.906510" lon="0.109418">
        <ele>1561.486525</ele>
        <time>2026-05-04T11:23:16.647Z</time>
      </trkpt>
      <trkpt lat="42.906590" lon="0.109771">
        <ele>1564.165581</ele>
        <time>2026-05-04T11:23:32.900Z</time>
      </trkpt>
      <trkpt lat="42.906870" lon="0.110705">
        <ele>1571.482556</ele>
        <time>2026-05-04T11:24:17.274Z</time>
      </trkpt>
      <trkpt lat="42.907214" lon="0.112104">
        <ele>1582.430638</ele>
        <time>2026-05-04T11:25:26.427Z</time>
      </trkpt>
      <trkpt lat="42.907247" lon="0.113382">
        <ele>1592.102161</ele>
        <time>2026-05-04T11:26:26.871Z</time>
      </trkpt>
      <trkpt lat="42.907340" lon="0.114230">
        <ele>1598.347575</ele>
        <time>2026-05-04T11:27:05.785Z</time>
      </trkpt>
      <trkpt lat="42.907360" lon="0.114738">
        <ele>1601.939026</ele>
        <time>2026-05-04T11:27:29.086Z</time>
      </trkpt>
      <trkpt lat="42.907292" lon="0.115388">
        <ele>1606.574332</ele>
        <time>2026-05-04T11:27:58.878Z</time>
      </trkpt>
      <trkpt lat="42.907197" lon="0.115804">
        <ele>1609.650556</ele>
        <time>2026-05-04T11:28:17.843Z</time>
      </trkpt>
      <trkpt lat="42.907119" lon="0.116106">
        <ele>1611.911224</ele>
        <time>2026-05-04T11:28:31.470Z</time>
      </trkpt>
      <trkpt lat="42.907130" lon="0.116182">
        <ele>1612.447839</ele>
        <time>2026-05-04T11:28:34.726Z</time>
      </trkpt>
      <trkpt lat="42.907198" lon="0.116271">
        <ele>1613.285762</ele>
        <time>2026-05-04T11:28:40.166Z</time>
      </trkpt>
      <trkpt lat="42.907285" lon="0.116263">
        <ele>1614.061395</ele>
        <time>2026-05-04T11:28:45.294Z</time>
      </trkpt>
      <trkpt lat="42.907348" lon="0.116222">
        <ele>1614.682203</ele>
        <time>2026-05-04T11:28:49.490Z</time>
      </trkpt>
      <trkpt lat="42.907611" lon="0.115881">
        <ele>1617.908499</ele>
        <time>2026-05-04T11:29:10.802Z</time>
      </trkpt>
      <trkpt lat="42.908004" lon="0.115515">
        <ele>1622.140157</ele>
        <time>2026-05-04T11:29:39.309Z</time>
      </trkpt>
      <trkpt lat="42.908096" lon="0.115571">
        <ele>1623.036162</ele>
        <time>2026-05-04T11:29:44.917Z</time>
      </trkpt>
      <trkpt lat="42.908128" lon="0.115657">
        <ele>1623.664630</ele>
        <time>2026-05-04T11:29:48.915Z</time>
      </trkpt>
      <trkpt lat="42.908112" lon="0.115781">
        <ele>1624.484960</ele>
        <time>2026-05-04T11:29:54.058Z</time>
      </trkpt>
      <trkpt lat="42.908028" lon="0.115941">
        <ele>1625.767528</ele>
        <time>2026-05-04T11:30:02.088Z</time>
      </trkpt>
      <trkpt lat="42.907793" lon="0.116397">
        <ele>1629.410805</ele>
        <time>2026-05-04T11:30:24.813Z</time>
      </trkpt>
      <trkpt lat="42.907558" lon="0.117003">
        <ele>1633.922348</ele>
        <time>2026-05-04T11:30:53.419Z</time>
      </trkpt>
      <trkpt lat="42.907446" lon="0.117465">
        <ele>1637.124274</ele>
        <time>2026-05-04T11:31:13.884Z</time>
      </trkpt>
      <trkpt lat="42.907370" lon="0.117891">
        <ele>1640.009115</ele>
        <time>2026-05-04T11:31:32.265Z</time>
      </trkpt>
      <trkpt lat="42.907224" lon="0.119087">
        <ele>1648.384366</ele>
        <time>2026-05-04T11:32:26.471Z</time>
      </trkpt>
      <trkpt lat="42.907072" lon="0.120674">
        <ele>1660.109149</ele>
        <time>2026-05-04T11:33:42.948Z</time>
      </trkpt>
      <trkpt lat="42.907060" lon="0.122539">
        <ele>1672.131451</ele>
        <time>2026-05-04T11:35:01.810Z</time>
      </trkpt>
      <trkpt lat="42.907071" lon="0.123116">
        <ele>1675.746010</ele>
        <time>2026-05-04T11:35:24.320Z</time>
      </trkpt>
      <trkpt lat="42.907022" lon="0.124142">
        <ele>1682.067338</ele>
        <time>2026-05-04T11:36:04.303Z</time>
      </trkpt>
      <trkpt lat="42.907047" lon="0.125080">
        <ele>1687.786110</ele>
        <time>2026-05-04T11:36:42.385Z</time>
      </trkpt>
      <trkpt lat="42.907103" lon="0.125959">
        <ele>1693.203372</ele>
        <time>2026-05-04T11:37:19.468Z</time>
      </trkpt>
      <trkpt lat="42.907041" lon="0.127103">
        <ele>1701.015702</ele>
        <time>2026-05-04T11:38:09.099Z</time>
      </trkpt>
      <trkpt lat="42.906989" lon="0.127644">
        <ele>1704.731689</ele>
        <time>2026-05-04T11:38:33.207Z</time>
      </trkpt>
      <trkpt lat="42.906922" lon="0.129582">
        <ele>1717.518051</ele>
        <time>2026-05-04T11:40:00.248Z</time>
      </trkpt>
      <trkpt lat="42.906873" lon="0.129892">
        <ele>1719.568279</ele>
        <time>2026-05-04T11:40:14.048Z</time>
      </trkpt>
      <trkpt lat="42.906753" lon="0.130259">
        <ele>1722.166543</ele>
        <time>2026-05-04T11:40:30.659Z</time>
      </trkpt>
      <trkpt lat="42.906547" lon="0.131123">
        <ele>1727.591954</ele>
        <time>2026-05-04T11:41:04.662Z</time>
      </trkpt>
      <trkpt lat="42.906491" lon="0.131279">
        <ele>1728.523659</ele>
        <time>2026-05-04T11:41:10.706Z</time>
      </trkpt>
      <trkpt lat="42.906322" lon="0.131479">
        <ele>1730.161230</ele>
        <time>2026-05-04T11:41:20.964Z</time>
      </trkpt>
      <trkpt lat="42.906154" lon="0.131560">
        <ele>1731.465759</ele>
        <time>2026-05-04T11:41:29.162Z</time>
      </trkpt>
      <trkpt lat="42.905943" lon="0.131598">
        <ele>1733.024059</ele>
        <time>2026-05-04T11:41:39.583Z</time>
      </trkpt>
      <trkpt lat="42.905752" lon="0.131519">
        <ele>1734.485309</ele>
        <time>2026-05-04T11:41:49.970Z</time>
      </trkpt>
      <trkpt lat="42.905683" lon="0.131423">
        <ele>1735.206638</ele>
        <time>2026-05-04T11:41:55.209Z</time>
      </trkpt>
      <trkpt lat="42.905629" lon="0.131245">
        <ele>1736.239908</ele>
        <time>2026-05-04T11:42:02.849Z</time>
      </trkpt>
      <trkpt lat="42.905595" lon="0.130986">
        <ele>1737.651084</ele>
        <time>2026-05-04T11:42:13.455Z</time>
      </trkpt>
      <trkpt lat="42.905519" lon="0.130749">
        <ele>1739.113418</ele>
        <time>2026-05-04T11:42:24.078Z</time>
      </trkpt>
      <trkpt lat="42.905446" lon="0.130604">
        <ele>1740.210120</ele>
        <time>2026-05-04T11:42:31.607Z</time>
      </trkpt>
      <trkpt lat="42.905244" lon="0.130280">
        <ele>1742.862161</ele>
        <time>2026-05-04T11:42:50.259Z</time>
      </trkpt>
      <trkpt lat="42.905161" lon="0.130192">
        <ele>1743.756439</ele>
        <time>2026-05-04T11:42:56.412Z</time>
      </trkpt>
      <trkpt lat="42.905006" lon="0.130100">
        <ele>1745.194700</ele>
        <time>2026-05-04T11:43:06.452Z</time>
      </trkpt>
      <trkpt lat="42.904843" lon="0.130003">
        <ele>1746.707821</ele>
        <time>2026-05-04T11:43:17.215Z</time>
      </trkpt>
      <trkpt lat="42.904666" lon="0.129849">
        <ele>1748.493905</ele>
        <time>2026-05-04T11:43:30.063Z</time>
      </trkpt>
      <trkpt lat="42.904545" lon="0.129662">
        <ele>1750.049175</ele>
        <time>2026-05-04T11:43:40.892Z</time>
      </trkpt>
      <trkpt lat="42.904483" lon="0.129501">
        <ele>1751.182962</ele>
        <time>2026-05-04T11:43:48.448Z</time>
      </trkpt>
      <trkpt lat="42.904241" lon="0.128389">
        <ele>1758.020562</ele>
        <time>2026-05-04T11:44:30.237Z</time>
      </trkpt>
      <trkpt lat="42.904199" lon="0.127566">
        <ele>1762.716641</ele>
        <time>2026-05-04T11:44:57.938Z</time>
      </trkpt>
      <trkpt lat="42.904053" lon="0.127126">
        <ele>1765.466234</ele>
        <time>2026-05-04T11:45:19.406Z</time>
      </trkpt>
      <trkpt lat="42.904045" lon="0.127024">
        <ele>1766.050164</ele>
        <time>2026-05-04T11:45:23.991Z</time>
      </trkpt>
      <trkpt lat="42.904098" lon="0.126662">
        <ele>1768.215531</ele>
        <time>2026-05-04T11:45:40.787Z</time>
      </trkpt>
      <trkpt lat="42.904082" lon="0.126544">
        <ele>1769.048966</ele>
        <time>2026-05-04T11:45:46.226Z</time>
      </trkpt>
      <trkpt lat="42.904005" lon="0.126452">
        <ele>1770.019141</ele>
        <time>2026-05-04T11:45:52.733Z</time>
      </trkpt>
      <trkpt lat="42.903916" lon="0.126440">
        <ele>1770.867085</ele>
        <time>2026-05-04T11:45:58.613Z</time>
      </trkpt>
      <trkpt lat="42.903883" lon="0.126477">
        <ele>1771.271966</ele>
        <time>2026-05-04T11:46:01.383Z</time>
      </trkpt>
      <trkpt lat="42.903828" lon="0.126542">
        <ele>1771.961692</ele>
        <time>2026-05-04T11:46:05.969Z</time>
      </trkpt>
      <trkpt lat="42.903781" lon="0.126658">
        <ele>1772.882351</ele>
        <time>2026-05-04T11:46:12.205Z</time>
      </trkpt>
      <trkpt lat="42.903716" lon="0.126902">
        <ele>1774.685532</ele>
        <time>2026-05-04T11:46:24.541Z</time>
      </trkpt>
      <trkpt lat="42.903734" lon="0.127314">
        <ele>1777.551984</ele>
        <time>2026-05-04T11:46:44.376Z</time>
      </trkpt>
      <trkpt lat="42.903697" lon="0.127481">
        <ele>1778.763703</ele>
        <time>2026-05-04T11:46:52.752Z</time>
      </trkpt>
      <trkpt lat="42.903577" lon="0.127806">
        <ele>1781.291394</ele>
        <time>2026-05-04T11:47:10.639Z</time>
      </trkpt>
      <trkpt lat="42.903565" lon="0.127898">
        <ele>1781.940392</ele>
        <time>2026-05-04T11:47:14.794Z</time>
      </trkpt>
      <trkpt lat="42.903587" lon="0.128123">
        <ele>1783.516896</ele>
        <time>2026-05-04T11:47:23.402Z</time>
      </trkpt>
      <trkpt lat="42.903769" lon="0.128723">
        <ele>1787.427285</ele>
        <time>2026-05-04T11:47:45.001Z</time>
      </trkpt>
      <trkpt lat="42.903784" lon="0.128894">
        <ele>1788.392903</ele>
        <time>2026-05-04T11:47:50.810Z</time>
      </trkpt>
      <trkpt lat="42.903765" lon="0.129256">
        <ele>1790.427779</ele>
        <time>2026-05-04T11:48:02.965Z</time>
      </trkpt>
      <trkpt lat="42.903717" lon="0.129486">
        <ele>1791.768669</ele>
        <time>2026-05-04T11:48:11.013Z</time>
      </trkpt>
      <trkpt lat="42.903516" lon="0.130069">
        <ele>1795.381433</ele>
        <time>2026-05-04T11:48:35.078Z</time>
      </trkpt>
      <trkpt lat="42.903357" lon="0.130701">
        <ele>1799.477188</ele>
        <time>2026-05-04T11:49:03.684Z</time>
      </trkpt>
      <trkpt lat="42.903353" lon="0.130869">
        <ele>1801.156548</ele>
        <time>2026-05-04T11:49:11.710Z</time>
      </trkpt>
      <trkpt lat="42.903389" lon="0.131153">
        <ele>1804.036139</ele>
        <time>2026-05-04T11:49:26.365Z</time>
      </trkpt>
      <trkpt lat="42.903373" lon="0.131291">
        <ele>1805.432049</ele>
        <time>2026-05-04T11:49:33.790Z</time>
      </trkpt>
      <trkpt lat="42.903256" lon="0.131515">
        <ele>1808.180705</ele>
        <time>2026-05-04T11:49:49.199Z</time>
      </trkpt>
      <trkpt lat="42.903028" lon="0.131760">
        <ele>1812.138282</ele>
        <time>2026-05-04T11:50:13.663Z</time>
      </trkpt>
      <trkpt lat="42.902754" lon="0.132182">
        <ele>1817.772373</ele>
        <time>2026-05-04T11:50:51.011Z</time>
      </trkpt>
      <trkpt lat="42.902504" lon="0.132291">
        <ele>1821.351909</ele>
        <time>2026-05-04T11:51:13.407Z</time>
      </trkpt>
      <trkpt lat="42.902052" lon="0.132368">
        <ele>1826.753482</ele>
        <time>2026-05-04T11:51:49.871Z</time>
      </trkpt>
      <trkpt lat="42.901979" lon="0.132409">
        <ele>1827.629367</ele>
        <time>2026-05-04T11:51:56.072Z</time>
      </trkpt>
      <trkpt lat="42.901925" lon="0.132525">
        <ele>1828.746507</ele>
        <time>2026-05-04T11:52:03.552Z</time>
      </trkpt>
      <trkpt lat="42.901928" lon="0.132685">
        <ele>1830.047425</ele>
        <time>2026-05-04T11:52:11.966Z</time>
      </trkpt>
      <trkpt lat="42.902166" lon="0.133298">
        <ele>1835.686524</ele>
        <time>2026-05-04T11:52:46.406Z</time>
      </trkpt>
      <trkpt lat="42.902250" lon="0.133866">
        <ele>1840.396397</ele>
        <time>2026-05-04T11:53:10.662Z</time>
      </trkpt>
      <trkpt lat="42.902318" lon="0.133983">
        <ele>1841.610348</ele>
        <time>2026-05-04T11:53:16.245Z</time>
      </trkpt>
      <trkpt lat="42.902592" lon="0.134137">
        <ele>1844.179336</ele>
        <time>2026-05-04T11:53:31.752Z</time>
      </trkpt>
      <trkpt lat="42.902672" lon="0.134267">
        <ele>1844.984630</ele>
        <time>2026-05-04T11:53:38.348Z</time>
      </trkpt>
      <trkpt lat="42.902770" lon="0.134550">
        <ele>1846.469322</ele>
        <time>2026-05-04T11:53:50.368Z</time>
      </trkpt>
      <trkpt lat="42.902786" lon="0.134709">
        <ele>1847.230536</ele>
        <time>2026-05-04T11:53:56.449Z</time>
      </trkpt>
      <trkpt lat="42.902716" lon="0.135040">
        <ele>1848.864576</ele>
        <time>2026-05-04T11:54:09.047Z</time>
      </trkpt>
      <trkpt lat="42.902718" lon="0.135202">
        <ele>1849.633046</ele>
        <time>2026-05-04T11:54:14.726Z</time>
      </trkpt>
      <trkpt lat="42.902830" lon="0.135672">
        <ele>1851.977232</ele>
        <time>2026-05-04T11:54:31.128Z</time>
      </trkpt>
      <trkpt lat="42.902875" lon="0.136022">
        <ele>1853.662645</ele>
        <time>2026-05-04T11:54:43.561Z</time>
      </trkpt>
      <trkpt lat="42.902949" lon="0.136095">
        <ele>1854.253797</ele>
        <time>2026-05-04T11:54:47.935Z</time>
      </trkpt>
      <trkpt lat="42.903224" lon="0.136150">
        <ele>1855.719726</ele>
        <time>2026-05-04T11:55:00.067Z</time>
      </trkpt>
      <trkpt lat="42.903428" lon="0.136301">
        <ele>1856.816392</ele>
        <time>2026-05-04T11:55:08.337Z</time>
      </trkpt>
      <trkpt lat="42.903503" lon="0.136384">
        <ele>1857.272660</ele>
        <time>2026-05-04T11:55:11.421Z</time>
      </trkpt>
      <trkpt lat="42.903564" lon="0.136501">
        <ele>1857.769796</ele>
        <time>2026-05-04T11:55:14.771Z</time>
      </trkpt>
      <trkpt lat="42.903664" lon="0.136801">
        <ele>1858.910776</ele>
        <time>2026-05-04T11:55:22.055Z</time>
      </trkpt>
      <trkpt lat="42.903826" lon="0.136960">
        <ele>1859.853684</ele>
        <time>2026-05-04T11:55:28.273Z</time>
      </trkpt>
      <trkpt lat="42.904078" lon="0.137078">
        <ele>1861.112707</ele>
        <time>2026-05-04T11:55:37.315Z</time>
      </trkpt>
      <trkpt lat="42.904384" lon="0.137143">
        <ele>1862.576220</ele>
        <time>2026-05-04T11:55:51.698Z</time>
      </trkpt>
      <trkpt lat="42.904695" lon="0.137097">
        <ele>1865.099376</ele>
        <time>2026-05-04T11:56:09.589Z</time>
      </trkpt>
      <trkpt lat="42.904850" lon="0.137118">
        <ele>1866.880032</ele>
        <time>2026-05-04T11:56:18.892Z</time>
      </trkpt>
      <trkpt lat="42.904979" lon="0.137220">
        <ele>1868.584239</ele>
        <time>2026-05-04T11:56:27.857Z</time>
      </trkpt>
      <trkpt lat="42.905136" lon="0.137412">
        <ele>1870.993851</ele>
        <time>2026-05-04T11:56:41.763Z</time>
      </trkpt>
      <trkpt lat="42.905255" lon="0.137614">
        <ele>1873.164522</ele>
        <time>2026-05-04T11:56:55.446Z</time>
      </trkpt>
      <trkpt lat="42.905372" lon="0.137881">
        <ele>1875.769838</ele>
        <time>2026-05-04T11:57:12.744Z</time>
      </trkpt>
      <trkpt lat="42.905574" lon="0.138115">
        <ele>1878.798374</ele>
        <time>2026-05-04T11:57:33.347Z</time>
      </trkpt>
      <trkpt lat="42.905766" lon="0.138273">
        <ele>1881.361214</ele>
        <time>2026-05-04T11:57:51.302Z</time>
      </trkpt>
      <trkpt lat="42.906064" lon="0.138423">
        <ele>1884.641789</ele>
        <time>2026-05-04T11:58:16.695Z</time>
      </trkpt>
      <trkpt lat="42.906258" lon="0.138631">
        <ele>1886.573238</ele>
        <time>2026-05-04T11:58:34.619Z</time>
      </trkpt>
      <trkpt lat="42.906395" lon="0.138697">
        <ele>1887.710773</ele>
        <time>2026-05-04T11:58:44.075Z</time>
      </trkpt>
      <trkpt lat="42.906598" lon="0.138700">
        <ele>1889.300355</ele>
        <time>2026-05-04T11:58:56.047Z</time>
      </trkpt>
      <trkpt lat="42.907027" lon="0.138571">
        <ele>1892.739933</ele>
        <time>2026-05-04T11:59:18.081Z</time>
      </trkpt>
      <trkpt lat="42.907275" lon="0.138604">
        <ele>1894.690973</ele>
        <time>2026-05-04T11:59:27.953Z</time>
      </trkpt>
      <trkpt lat="42.907379" lon="0.138588">
        <ele>1895.510446</ele>
        <time>2026-05-04T11:59:31.739Z</time>
      </trkpt>
      <trkpt lat="42.907526" lon="0.138489">
        <ele>1896.793876</ele>
        <time>2026-05-04T11:59:37.623Z</time>
      </trkpt>
      <trkpt lat="42.907810" lon="0.138134">
        <ele>1899.845785</ele>
        <time>2026-05-04T11:59:52.050Z</time>
      </trkpt>
      <trkpt lat="42.907910" lon="0.138055">
        <ele>1900.768528</ele>
        <time>2026-05-04T11:59:56.450Z</time>
      </trkpt>
      <trkpt lat="42.908248" lon="0.137852">
        <ele>1903.717698</ele>
        <time>2026-05-04T12:00:11.958Z</time>
      </trkpt>
      <trkpt lat="42.908403" lon="0.137798">
        <ele>1904.995311</ele>
        <time>2026-05-04T12:00:19.685Z</time>
      </trkpt>
      <trkpt lat="42.908889" lon="0.137815">
        <ele>1908.878140</ele>
        <time>2026-05-04T12:00:46.675Z</time>
      </trkpt>
      <trkpt lat="42.909291" lon="0.137956">
        <ele>1912.193064</ele>
        <time>2026-05-04T12:01:15.116Z</time>
      </trkpt>
      <trkpt lat="42.909546" lon="0.138001">
        <ele>1914.669069</ele>
        <time>2026-05-04T12:01:35.611Z</time>
      </trkpt>
      <trkpt lat="42.910161" lon="0.138062">
        <ele>1920.678725</ele>
        <time>2026-05-04T12:02:33.970Z</time>
      </trkpt>
      <trkpt lat="42.910423" lon="0.138041">
        <ele>1923.236604</ele>
        <time>2026-05-04T12:02:53.082Z</time>
      </trkpt>
      <trkpt lat="42.910577" lon="0.138057">
        <ele>1924.741845</ele>
        <time>2026-05-04T12:03:01.312Z</time>
      </trkpt>
      <trkpt lat="42.910654" lon="0.138117">
        <ele>1925.605911</ele>
        <time>2026-05-04T12:03:04.778Z</time>
      </trkpt>
      <trkpt lat="42.910925" lon="0.138558">
        <ele>1929.715106</ele>
        <time>2026-05-04T12:03:16.028Z</time>
      </trkpt>
      <trkpt lat="42.911040" lon="0.138552">
        <ele>1929.587328</ele>
        <time>2026-05-04T12:03:18.320Z</time>
      </trkpt>
      <trkpt lat="42.911553" lon="0.137915">
        <ele>1927.712074</ele>
        <time>2026-05-04T12:03:30.639Z</time>
      </trkpt>
      <trkpt lat="42.911805" lon="0.137840">
        <ele>1927.014574</ele>
        <time>2026-05-04T12:03:34.386Z</time>
      </trkpt>
      <trkpt lat="42.912146" lon="0.137859">
        <ele>1926.091623</ele>
        <time>2026-05-04T12:03:39.038Z</time>
      </trkpt>
      <trkpt lat="42.912321" lon="0.137800">
        <ele>1925.604147</ele>
        <time>2026-05-04T12:03:41.587Z</time>
      </trkpt>
      <trkpt lat="42.912537" lon="0.137663">
        <ele>1925.080087</ele>
        <time>2026-05-04T12:03:45.483Z</time>
      </trkpt>
      <trkpt lat="42.912695" lon="0.137457">
        <ele>1926.545606</ele>
        <time>2026-05-04T12:03:53.741Z</time>
      </trkpt>
      <trkpt lat="42.912920" lon="0.136954">
        <ele>1929.441360</ele>
        <time>2026-05-04T12:04:14.978Z</time>
      </trkpt>
      <trkpt lat="42.913048" lon="0.136816">
        <ele>1930.535427</ele>
        <time>2026-05-04T12:04:22.996Z</time>
      </trkpt>
      <trkpt lat="42.913215" lon="0.136755">
        <ele>1931.695103</ele>
        <time>2026-05-04T12:04:31.895Z</time>
      </trkpt>
      <trkpt lat="42.913308" lon="0.136783">
        <ele>1932.333960</ele>
        <time>2026-05-04T12:04:37.216Z</time>
      </trkpt>
      <trkpt lat="42.913385" lon="0.136909">
        <ele>1933.140200</ele>
        <time>2026-05-04T12:04:43.948Z</time>
      </trkpt>
      <trkpt lat="42.913395" lon="0.137024">
        <ele>1933.709168</ele>
        <time>2026-05-04T12:04:48.937Z</time>
      </trkpt>
      <trkpt lat="42.913367" lon="0.137137">
        <ele>1934.295254</ele>
        <time>2026-05-04T12:04:54.595Z</time>
      </trkpt>
      <trkpt lat="42.913332" lon="0.137186">
        <ele>1934.631530</ele>
        <time>2026-05-04T12:04:57.624Z</time>
      </trkpt>
      <trkpt lat="42.912943" lon="0.137444">
        <ele>1938.014175</ele>
        <time>2026-05-04T12:05:27.490Z</time>
      </trkpt>
      <trkpt lat="42.912597" lon="0.138049">
        <ele>1945.630802</ele>
        <time>2026-05-04T12:06:09.204Z</time>
      </trkpt>
      <trkpt lat="42.912485" lon="0.138171">
        <ele>1947.571936</ele>
        <time>2026-05-04T12:06:18.268Z</time>
      </trkpt>
      <trkpt lat="42.912149" lon="0.138354">
        <ele>1952.472964</ele>
        <time>2026-05-04T12:06:43.774Z</time>
      </trkpt>
      <trkpt lat="42.911813" lon="0.138447">
        <ele>1957.117783</ele>
        <time>2026-05-04T12:07:12.671Z</time>
      </trkpt>
      <trkpt lat="42.911710" lon="0.138531">
        <ele>1958.743235</ele>
        <time>2026-05-04T12:07:23.295Z</time>
      </trkpt>
      <trkpt lat="42.911447" lon="0.139005">
        <ele>1964.713212</ele>
        <time>2026-05-04T12:08:02.760Z</time>
      </trkpt>
      <trkpt lat="42.911327" lon="0.139368">
        <ele>1968.750244</ele>
        <time>2026-05-04T12:08:30.547Z</time>
      </trkpt>
      <trkpt lat="42.911263" lon="0.139474">
        <ele>1970.142756</ele>
        <time>2026-05-04T12:08:40.351Z</time>
      </trkpt>
      <trkpt lat="42.911175" lon="0.139509">
        <ele>1971.411307</ele>
        <time>2026-05-04T12:08:49.126Z</time>
      </trkpt>
      <trkpt lat="42.910923" lon="0.139495">
        <ele>1974.901898</ele>
        <time>2026-05-04T12:09:13.187Z</time>
      </trkpt>
      <trkpt lat="42.910520" lon="0.139381">
        <ele>1980.597909</ele>
        <time>2026-05-04T12:09:47.087Z</time>
      </trkpt>
      <trkpt lat="42.910162" lon="0.139333">
        <ele>1985.576497</ele>
        <time>2026-05-04T12:10:08.343Z</time>
      </trkpt>
      <trkpt lat="42.909803" lon="0.139368">
        <ele>1987.656382</ele>
        <time>2026-05-04T12:10:21.902Z</time>
      </trkpt>
      <trkpt lat="42.909500" lon="0.139321">
        <ele>1988.985788</ele>
        <time>2026-05-04T12:10:30.944Z</time>
      </trkpt>
      <trkpt lat="42.909191" lon="0.139370">
        <ele>1990.341908</ele>
        <time>2026-05-04T12:10:39.561Z</time>
      </trkpt>
      <trkpt lat="42.909060" lon="0.139425">
        <ele>1990.939385</ele>
        <time>2026-05-04T12:10:43.630Z</time>
      </trkpt>
      <trkpt lat="42.908834" lon="0.139589">
        <ele>1992.055133</ele>
        <time>2026-05-04T12:10:52.000Z</time>
      </trkpt>
      <trkpt lat="42.908440" lon="0.140088">
        <ele>1994.664203</ele>
        <time>2026-05-04T12:11:14.373Z</time>
      </trkpt>
      <trkpt lat="42.908252" lon="0.140209">
        <ele>1996.598380</ele>
        <time>2026-05-04T12:11:25.181Z</time>
      </trkpt>
      <trkpt lat="42.908098" lon="0.140347">
        <ele>1998.312617</ele>
        <time>2026-05-04T12:11:35.594Z</time>
      </trkpt>
      <trkpt lat="42.907948" lon="0.140605">
        <ele>2000.557850</ele>
        <time>2026-05-04T12:11:49.837Z</time>
      </trkpt>
      <trkpt lat="42.907716" lon="0.140868">
        <ele>2003.364061</ele>
        <time>2026-05-04T12:12:07.541Z</time>
      </trkpt>
      <trkpt lat="42.907480" lon="0.141224">
        <ele>2006.636910</ele>
        <time>2026-05-04T12:12:28.617Z</time>
      </trkpt>
      <trkpt lat="42.907378" lon="0.141470">
        <ele>2008.563724</ele>
        <time>2026-05-04T12:12:41.787Z</time>
      </trkpt>
      <trkpt lat="42.907240" lon="0.141993">
        <ele>2012.992030</ele>
        <time>2026-05-04T12:13:10.827Z</time>
      </trkpt>
      <trkpt lat="42.907185" lon="0.142351">
        <ele>2016.583326</ele>
        <time>2026-05-04T12:13:33.378Z</time>
      </trkpt>
      <trkpt lat="42.907192" lon="0.142555">
        <ele>2018.588378</ele>
        <time>2026-05-04T12:13:45.717Z</time>
      </trkpt>
      <trkpt lat="42.907383" lon="0.143018">
        <ele>2023.805446</ele>
        <time>2026-05-04T12:14:17.332Z</time>
      </trkpt>
      <trkpt lat="42.907464" lon="0.143339">
        <ele>2027.138764</ele>
        <time>2026-05-04T12:14:37.898Z</time>
      </trkpt>
      <trkpt lat="42.907474" lon="0.143731">
        <ele>2030.989703</ele>
        <time>2026-05-04T12:15:01.322Z</time>
      </trkpt>
      <trkpt lat="42.907407" lon="0.143878">
        <ele>2032.689539</ele>
        <time>2026-05-04T12:15:11.164Z</time>
      </trkpt>
      <trkpt lat="42.907278" lon="0.143985">
        <ele>2034.712769</ele>
        <time>2026-05-04T12:15:22.478Z</time>
      </trkpt>
      <trkpt lat="42.906999" lon="0.144228">
        <ele>2037.963055</ele>
        <time>2026-05-04T12:15:45.187Z</time>
      </trkpt>
      <trkpt lat="42.906470" lon="0.144517">
        <ele>2043.412179</ele>
        <time>2026-05-04T12:16:14.360Z</time>
      </trkpt>
      <trkpt lat="42.906316" lon="0.144632">
        <ele>2045.090882</ele>
        <time>2026-05-04T12:16:22.767Z</time>
      </trkpt>
      <trkpt lat="42.906261" lon="0.144706">
        <ele>2045.829379</ele>
        <time>2026-05-04T12:16:26.832Z</time>
      </trkpt>
      <trkpt lat="42.906071" lon="0.145167">
        <ele>2049.534805</ele>
        <time>2026-05-04T12:16:49.328Z</time>
      </trkpt>
      <trkpt lat="42.905960" lon="0.145613">
        <ele>2052.922901</ele>
        <time>2026-05-04T12:17:11.684Z</time>
      </trkpt>
      <trkpt lat="42.905874" lon="0.145864">
        <ele>2055.139802</ele>
        <time>2026-05-04T12:17:25.749Z</time>
      </trkpt>
      <trkpt lat="42.905587" lon="0.146323">
        <ele>2059.967937</ele>
        <time>2026-05-04T12:17:57.450Z</time>
      </trkpt>
      <trkpt lat="42.905473" lon="0.146409">
        <ele>2061.390524</ele>
        <time>2026-05-04T12:18:06.744Z</time>
      </trkpt>
      <trkpt lat="42.905233" lon="0.146494">
        <ele>2064.098641</ele>
        <time>2026-05-04T12:18:24.444Z</time>
      </trkpt>
      <trkpt lat="42.905180" lon="0.146549">
        <ele>2064.825773</ele>
        <time>2026-05-04T12:18:29.106Z</time>
      </trkpt>
      <trkpt lat="42.905172" lon="0.146659">
        <ele>2065.710140</ele>
        <time>2026-05-04T12:18:34.774Z</time>
      </trkpt>
      <trkpt lat="42.905201" lon="0.146708">
        <ele>2066.214130</ele>
        <time>2026-05-04T12:18:37.969Z</time>
      </trkpt>
      <trkpt lat="42.905295" lon="0.146703">
        <ele>2067.241604</ele>
        <time>2026-05-04T12:18:44.440Z</time>
      </trkpt>
      <trkpt lat="42.905736" lon="0.146473">
        <ele>2072.318780</ele>
        <time>2026-05-04T12:19:13.915Z</time>
      </trkpt>
      <trkpt lat="42.906112" lon="0.146010">
        <ele>2077.040415</ele>
        <time>2026-05-04T12:19:41.284Z</time>
      </trkpt>
      <trkpt lat="42.906307" lon="0.145833">
        <ele>2079.223977</ele>
        <time>2026-05-04T12:19:53.417Z</time>
      </trkpt>
      <trkpt lat="42.906612" lon="0.145621">
        <ele>2082.415454</ele>
        <time>2026-05-04T12:20:11.299Z</time>
      </trkpt>
      <trkpt lat="42.906795" lon="0.145321">
        <ele>2085.082014</ele>
        <time>2026-05-04T12:20:27.647Z</time>
      </trkpt>
      <trkpt lat="42.906895" lon="0.145230">
        <ele>2086.202659</ele>
        <time>2026-05-04T12:20:34.792Z</time>
      </trkpt>
      <trkpt lat="42.907340" lon="0.145118">
        <ele>2088.629429</ele>
        <time>2026-05-04T12:21:06.711Z</time>
      </trkpt>
      <trkpt lat="42.907476" lon="0.145120">
        <ele>2088.629429</ele>
        <time>2026-05-04T12:21:17.995Z</time>
      </trkpt>
      <trkpt lat="42.907797" lon="0.145211">
        <ele>2088.629429</ele>
        <time>2026-05-04T12:21:44.638Z</time>
      </trkpt>
      <trkpt lat="42.908075" lon="0.145100">
        <ele>2088.629429</ele>
        <time>2026-05-04T12:22:06.624Z</time>
      </trkpt>
      <trkpt lat="42.908245" lon="0.145128">
        <ele>2088.629429</ele>
        <time>2026-05-04T12:22:19.282Z</time>
      </trkpt>
      <trkpt lat="42.908375" lon="0.145268">
        <ele>2088.629429</ele>
        <time>2026-05-04T12:22:31.129Z</time>
      </trkpt>
    </trkseg>
  </trk>
</gpx>