<?xml version='1.0' encoding='UTF-8'?>
<gpx version="1.1" creator="https://www.komoot.de" xmlns="http://www.topografix.com/GPX/1/1" xmlns:xsi="http://www.w3.org/2001/XMLSchema-instance" xsi:schemaLocation="http://www.topografix.com/GPX/1/1 http://www.topografix.com/GPX/1/1/gpx.xsd">
  <metadata>
    <name>Col du Tourmalet - Versant Est par Campan</name>
    <author>
      <link href="https://www.komoot.de">
        <text>komoot</text>
        <type>text/html</type>
      </link>
    </author>
  </metadata>
  <wpt lat="42.925872" lon="0.197091">
    <name>Win petite cascade apporte de la variété</name>
    <sym>Flag, Blue</sym>
  </wpt>
  <wpt lat="42.910332" lon="0.170098">
    <name>Toilettes publiques</name>
    <sym>Restroom</sym>
  </wpt>
  <wpt lat="42.906729" lon="0.154375">
    <name>Un des rares virages vers le col du Tourmalet</name>
    <sym>Flag, Blue</sym>
  </wpt>
  <wpt lat="42.908375" lon="0.145268">
    <name>Col du Tourmalet</name>
    <sym>Flag, Blue</sym>
  </wpt>
  <trk>
    <name>Col du Tourmalet - Versant Est par Campan</name>
    <trkseg>
      <trkpt lat="42.984667" lon="0.227507">
        <ele>857.052728</ele>
        <time>2026-04-29T13:55:53.340Z</time>
      </trkpt>
      <trkpt lat="42.984573" lon="0.227210">
        <ele>857.052728</ele>
        <time>2026-04-29T13:56:02.105Z</time>
      </trkpt>
      <trkpt lat="42.984507" lon="0.227136">
        <ele>857.052728</ele>
        <time>2026-04-29T13:56:05.315Z</time>
      </trkpt>
      <trkpt lat="42.984460" lon="0.227121">
        <ele>857.052728</ele>
        <time>2026-04-29T13:56:07.199Z</time>
      </trkpt>
      <trkpt lat="42.984293" lon="0.227073">
        <ele>857.052728</ele>
        <time>2026-04-29T13:56:13.850Z</time>
      </trkpt>
      <trkpt lat="42.984039" lon="0.226998">
        <ele>857.052728</ele>
        <time>2026-04-29T13:56:24.152Z</time>
      </trkpt>
      <trkpt lat="42.983780" lon="0.226920">
        <ele>857.727441</ele>
        <time>2026-04-29T13:56:35.039Z</time>
      </trkpt>
      <trkpt lat="42.983385" lon="0.226824">
        <ele>859.350747</ele>
        <time>2026-04-29T13:56:51.312Z</time>
      </trkpt>
      <trkpt lat="42.983122" lon="0.226823">
        <ele>860.414896</ele>
        <time>2026-04-29T13:57:01.328Z</time>
      </trkpt>
      <trkpt lat="42.982370" lon="0.226941">
        <ele>863.477606</ele>
        <time>2026-04-29T13:57:29.446Z</time>
      </trkpt>
      <trkpt lat="42.981967" lon="0.227061">
        <ele>865.085794</ele>
        <time>2026-04-29T13:57:44.899Z</time>
      </trkpt>
      <trkpt lat="42.981393" lon="0.227089">
        <ele>867.237033</ele>
        <time>2026-04-29T13:58:07.205Z</time>
      </trkpt>
      <trkpt lat="42.980885" lon="0.227186">
        <ele>869.158179</ele>
        <time>2026-04-29T13:58:26.728Z</time>
      </trkpt>
      <trkpt lat="42.980619" lon="0.227252">
        <ele>870.170741</ele>
        <time>2026-04-29T13:58:36.444Z</time>
      </trkpt>
      <trkpt lat="42.980365" lon="0.227390">
        <ele>871.219592</ele>
        <time>2026-04-29T13:58:45.970Z</time>
      </trkpt>
      <trkpt lat="42.979864" lon="0.227616">
        <ele>873.585093</ele>
        <time>2026-04-29T13:59:04.264Z</time>
      </trkpt>
      <trkpt lat="42.979678" lon="0.227741">
        <ele>874.514410</ele>
        <time>2026-04-29T13:59:11.728Z</time>
      </trkpt>
      <trkpt lat="42.979465" lon="0.227875">
        <ele>875.565737</ele>
        <time>2026-04-29T13:59:20.600Z</time>
      </trkpt>
      <trkpt lat="42.979187" lon="0.227927">
        <ele>876.823823</ele>
        <time>2026-04-29T13:59:31.919Z</time>
      </trkpt>
      <trkpt lat="42.978995" lon="0.227959">
        <ele>877.691070</ele>
        <time>2026-04-29T13:59:40.199Z</time>
      </trkpt>
      <trkpt lat="42.978569" lon="0.228113">
        <ele>880.111259</ele>
        <time>2026-04-29T14:00:00.723Z</time>
      </trkpt>
      <trkpt lat="42.978096" lon="0.228157">
        <ele>884.002292</ele>
        <time>2026-04-29T14:00:25.917Z</time>
      </trkpt>
      <trkpt lat="42.977480" lon="0.228378">
        <ele>889.229245</ele>
        <time>2026-04-29T14:01:02.379Z</time>
      </trkpt>
      <trkpt lat="42.977150" lon="0.228381">
        <ele>891.937714</ele>
        <time>2026-04-29T14:01:22.153Z</time>
      </trkpt>
      <trkpt lat="42.976796" lon="0.228369">
        <ele>894.695798</ele>
        <time>2026-04-29T14:01:43.173Z</time>
      </trkpt>
      <trkpt lat="42.976598" lon="0.228312">
        <ele>896.097541</ele>
        <time>2026-04-29T14:01:55.269Z</time>
      </trkpt>
      <trkpt lat="42.976401" lon="0.228261">
        <ele>897.486526</ele>
        <time>2026-04-29T14:02:07.195Z</time>
      </trkpt>
      <trkpt lat="42.976128" lon="0.228221">
        <ele>899.388575</ele>
        <time>2026-04-29T14:02:22.712Z</time>
      </trkpt>
      <trkpt lat="42.975847" lon="0.228233">
        <ele>901.336158</ele>
        <time>2026-04-29T14:02:37.298Z</time>
      </trkpt>
      <trkpt lat="42.975625" lon="0.228292">
        <ele>902.902872</ele>
        <time>2026-04-29T14:02:48.619Z</time>
      </trkpt>
      <trkpt lat="42.975317" lon="0.228429">
        <ele>905.146695</ele>
        <time>2026-04-29T14:03:02.945Z</time>
      </trkpt>
      <trkpt lat="42.974294" lon="0.229228">
        <ele>908.779798</ele>
        <time>2026-04-29T14:03:40.157Z</time>
      </trkpt>
      <trkpt lat="42.974095" lon="0.229390">
        <ele>909.339486</ele>
        <time>2026-04-29T14:03:46.597Z</time>
      </trkpt>
      <trkpt lat="42.974057" lon="0.229420">
        <ele>909.445525</ele>
        <time>2026-04-29T14:03:47.853Z</time>
      </trkpt>
      <trkpt lat="42.973616" lon="0.229766">
        <ele>910.674233</ele>
        <time>2026-04-29T14:04:02.673Z</time>
      </trkpt>
      <trkpt lat="42.973218" lon="0.230024">
        <ele>912.085467</ele>
        <time>2026-04-29T14:04:16.306Z</time>
      </trkpt>
      <trkpt lat="42.972802" lon="0.230092">
        <ele>913.435870</ele>
        <time>2026-04-29T14:04:30.762Z</time>
      </trkpt>
      <trkpt lat="42.972733" lon="0.230094">
        <ele>913.658320</ele>
        <time>2026-04-29T14:04:33.254Z</time>
      </trkpt>
      <trkpt lat="42.972430" lon="0.230117">
        <ele>914.636452</ele>
        <time>2026-04-29T14:04:45.366Z</time>
      </trkpt>
      <trkpt lat="42.972152" lon="0.230182">
        <ele>915.545517</ele>
        <time>2026-04-29T14:04:56.571Z</time>
      </trkpt>
      <trkpt lat="42.971880" lon="0.230348">
        <ele>916.507534</ele>
        <time>2026-04-29T14:05:07.526Z</time>
      </trkpt>
      <trkpt lat="42.971298" lon="0.230785">
        <ele>919.125794</ele>
        <time>2026-04-29T14:05:31.244Z</time>
      </trkpt>
      <trkpt lat="42.970885" lon="0.231076">
        <ele>920.957869</ele>
        <time>2026-04-29T14:05:47.890Z</time>
      </trkpt>
      <trkpt lat="42.970739" lon="0.231143">
        <ele>921.565113</ele>
        <time>2026-04-29T14:05:53.501Z</time>
      </trkpt>
      <trkpt lat="42.970628" lon="0.231156">
        <ele>922.004374</ele>
        <time>2026-04-29T14:05:57.583Z</time>
      </trkpt>
      <trkpt lat="42.970091" lon="0.231092">
        <ele>924.330947</ele>
        <time>2026-04-29T14:06:19.135Z</time>
      </trkpt>
      <trkpt lat="42.969696" lon="0.230983">
        <ele>926.511161</ele>
        <time>2026-04-29T14:06:38.414Z</time>
      </trkpt>
      <trkpt lat="42.969363" lon="0.230848">
        <ele>928.390403</ele>
        <time>2026-04-29T14:06:55.610Z</time>
      </trkpt>
      <trkpt lat="42.968841" lon="0.230520">
        <ele>931.498813</ele>
        <time>2026-04-29T14:07:23.144Z</time>
      </trkpt>
      <trkpt lat="42.968538" lon="0.230366">
        <ele>933.247845</ele>
        <time>2026-04-29T14:07:37.682Z</time>
      </trkpt>
      <trkpt lat="42.967478" lon="0.230186">
        <ele>933.848298</ele>
        <time>2026-04-29T14:08:08.729Z</time>
      </trkpt>
      <trkpt lat="42.967217" lon="0.230222">
        <ele>933.979602</ele>
        <time>2026-04-29T14:08:13.353Z</time>
      </trkpt>
      <trkpt lat="42.966543" lon="0.230430">
        <ele>934.007591</ele>
        <time>2026-04-29T14:08:25.084Z</time>
      </trkpt>
      <trkpt lat="42.966346" lon="0.230442">
        <ele>933.806960</ele>
        <time>2026-04-29T14:08:28.341Z</time>
      </trkpt>
      <trkpt lat="42.966017" lon="0.230434">
        <ele>933.472174</ele>
        <time>2026-04-29T14:08:33.760Z</time>
      </trkpt>
      <trkpt lat="42.965060" lon="0.230343">
        <ele>932.496143</ele>
        <time>2026-04-29T14:08:53.125Z</time>
      </trkpt>
      <trkpt lat="42.964932" lon="0.230327">
        <ele>932.452168</ele>
        <time>2026-04-29T14:08:56.857Z</time>
      </trkpt>
      <trkpt lat="42.964651" lon="0.230301">
        <ele>933.149105</ele>
        <time>2026-04-29T14:09:05.751Z</time>
      </trkpt>
      <trkpt lat="42.963139" lon="0.230342">
        <ele>936.901905</ele>
        <time>2026-04-29T14:09:57.309Z</time>
      </trkpt>
      <trkpt lat="42.962791" lon="0.230403">
        <ele>937.953941</ele>
        <time>2026-04-29T14:10:08.670Z</time>
      </trkpt>
      <trkpt lat="42.962505" lon="0.230421">
        <ele>938.812428</ele>
        <time>2026-04-29T14:10:17.936Z</time>
      </trkpt>
      <trkpt lat="42.961967" lon="0.230295">
        <ele>940.449155</ele>
        <time>2026-04-29T14:10:35.210Z</time>
      </trkpt>
      <trkpt lat="42.961484" lon="0.230280">
        <ele>941.897816</ele>
        <time>2026-04-29T14:10:52.522Z</time>
      </trkpt>
      <trkpt lat="42.960996" lon="0.230211">
        <ele>943.697197</ele>
        <time>2026-04-29T14:11:12.508Z</time>
      </trkpt>
      <trkpt lat="42.960250" lon="0.230079">
        <ele>946.605660</ele>
        <time>2026-04-29T14:11:41.326Z</time>
      </trkpt>
      <trkpt lat="42.959938" lon="0.229872">
        <ele>947.946675</ele>
        <time>2026-04-29T14:11:53.679Z</time>
      </trkpt>
      <trkpt lat="42.959379" lon="0.229403">
        <ele>950.671809</ele>
        <time>2026-04-29T14:12:18.229Z</time>
      </trkpt>
      <trkpt lat="42.959183" lon="0.229223">
        <ele>951.718190</ele>
        <time>2026-04-29T14:12:26.898Z</time>
      </trkpt>
      <trkpt lat="42.958891" lon="0.228966">
        <ele>953.257185</ele>
        <time>2026-04-29T14:12:39.462Z</time>
      </trkpt>
      <trkpt lat="42.958678" lon="0.228832">
        <ele>954.296195</ele>
        <time>2026-04-29T14:12:48.385Z</time>
      </trkpt>
      <trkpt lat="42.958434" lon="0.228721">
        <ele>955.435682</ele>
        <time>2026-04-29T14:12:59.396Z</time>
      </trkpt>
      <trkpt lat="42.957777" lon="0.228648">
        <ele>958.789631</ele>
        <time>2026-04-29T14:13:30.054Z</time>
      </trkpt>
      <trkpt lat="42.957518" lon="0.228508">
        <ele>960.470209</ele>
        <time>2026-04-29T14:13:42.836Z</time>
      </trkpt>
      <trkpt lat="42.957223" lon="0.228369">
        <ele>962.353023</ele>
        <time>2026-04-29T14:13:57.618Z</time>
      </trkpt>
      <trkpt lat="42.956945" lon="0.228256">
        <ele>964.103050</ele>
        <time>2026-04-29T14:14:12.183Z</time>
      </trkpt>
      <trkpt lat="42.956006" lon="0.227881">
        <ele>969.525104</ele>
        <time>2026-04-29T14:14:56.701Z</time>
      </trkpt>
      <trkpt lat="42.955889" lon="0.227860">
        <ele>970.065519</ele>
        <time>2026-04-29T14:15:01.492Z</time>
      </trkpt>
      <trkpt lat="42.955561" lon="0.227904">
        <ele>971.574849</ele>
        <time>2026-04-29T14:15:15.385Z</time>
      </trkpt>
      <trkpt lat="42.955484" lon="0.227923">
        <ele>971.933182</ele>
        <time>2026-04-29T14:15:18.579Z</time>
      </trkpt>
      <trkpt lat="42.955122" lon="0.227957">
        <ele>973.594907</ele>
        <time>2026-04-29T14:15:33.274Z</time>
      </trkpt>
      <trkpt lat="42.954096" lon="0.227930">
        <ele>977.492542</ele>
        <time>2026-04-29T14:16:10.678Z</time>
      </trkpt>
      <trkpt lat="42.953707" lon="0.227860">
        <ele>978.585170</ele>
        <time>2026-04-29T14:16:24.894Z</time>
      </trkpt>
      <trkpt lat="42.952365" lon="0.227217">
        <ele>982.815984</ele>
        <time>2026-04-29T14:17:08.481Z</time>
      </trkpt>
      <trkpt lat="42.951675" lon="0.226651">
        <ele>985.527811</ele>
        <time>2026-04-29T14:17:35.035Z</time>
      </trkpt>
      <trkpt lat="42.951323" lon="0.226372">
        <ele>986.899027</ele>
        <time>2026-04-29T14:17:51.306Z</time>
      </trkpt>
      <trkpt lat="42.951054" lon="0.226178">
        <ele>988.464847</ele>
        <time>2026-04-29T14:18:04.967Z</time>
      </trkpt>
      <trkpt lat="42.950608" lon="0.225944">
        <ele>991.510952</ele>
        <time>2026-04-29T14:18:28.453Z</time>
      </trkpt>
      <trkpt lat="42.949999" lon="0.225617">
        <ele>995.682964</ele>
        <time>2026-04-29T14:19:01.318Z</time>
      </trkpt>
      <trkpt lat="42.949599" lon="0.225537">
        <ele>998.260490</ele>
        <time>2026-04-29T14:19:21.139Z</time>
      </trkpt>
      <trkpt lat="42.949442" lon="0.225446">
        <ele>999.300709</ele>
        <time>2026-04-29T14:19:29.404Z</time>
      </trkpt>
      <trkpt lat="42.949149" lon="0.225124">
        <ele>1001.497161</ele>
        <time>2026-04-29T14:19:47.180Z</time>
      </trkpt>
      <trkpt lat="42.948929" lon="0.224654">
        <ele>1003.882403</ele>
        <time>2026-04-29T14:20:05.442Z</time>
      </trkpt>
      <trkpt lat="42.948842" lon="0.224559">
        <ele>1004.532960</ele>
        <time>2026-04-29T14:20:10.357Z</time>
      </trkpt>
      <trkpt lat="42.948675" lon="0.224479">
        <ele>1005.566661</ele>
        <time>2026-04-29T14:20:18.066Z</time>
      </trkpt>
      <trkpt lat="42.948326" lon="0.224386">
        <ele>1007.643641</ele>
        <time>2026-04-29T14:20:33.763Z</time>
      </trkpt>
      <trkpt lat="42.947603" lon="0.223919">
        <ele>1012.933296</ele>
        <time>2026-04-29T14:21:10.130Z</time>
      </trkpt>
      <trkpt lat="42.947460" lon="0.223783">
        <ele>1014.159187</ele>
        <time>2026-04-29T14:21:18.266Z</time>
      </trkpt>
      <trkpt lat="42.947140" lon="0.223423">
        <ele>1017.075733</ele>
        <time>2026-04-29T14:21:39.085Z</time>
      </trkpt>
      <trkpt lat="42.946925" lon="0.223025">
        <ele>1019.623183</ele>
        <time>2026-04-29T14:21:58.872Z</time>
      </trkpt>
      <trkpt lat="42.946799" lon="0.222705">
        <ele>1021.494500</ele>
        <time>2026-04-29T14:22:14.057Z</time>
      </trkpt>
      <trkpt lat="42.946698" lon="0.222247">
        <ele>1024.081310</ele>
        <time>2026-04-29T14:22:33.856Z</time>
      </trkpt>
      <trkpt lat="42.946623" lon="0.221902">
        <ele>1026.048463</ele>
        <time>2026-04-29T14:22:48.276Z</time>
      </trkpt>
      <trkpt lat="42.946524" lon="0.221630">
        <ele>1027.708850</ele>
        <time>2026-04-29T14:23:00.444Z</time>
      </trkpt>
      <trkpt lat="42.946407" lon="0.221457">
        <ele>1028.996278</ele>
        <time>2026-04-29T14:23:09.672Z</time>
      </trkpt>
      <trkpt lat="42.946237" lon="0.221353">
        <ele>1030.387178</ele>
        <time>2026-04-29T14:23:19.577Z</time>
      </trkpt>
      <trkpt lat="42.945977" lon="0.221292">
        <ele>1032.357084</ele>
        <time>2026-04-29T14:23:33.218Z</time>
      </trkpt>
      <trkpt lat="42.945727" lon="0.221096">
        <ele>1034.509465</ele>
        <time>2026-04-29T14:23:47.261Z</time>
      </trkpt>
      <trkpt lat="42.945614" lon="0.220928">
        <ele>1035.708683</ele>
        <time>2026-04-29T14:23:55.009Z</time>
      </trkpt>
      <trkpt lat="42.945308" lon="0.220356">
        <ele>1039.092195</ele>
        <time>2026-04-29T14:24:17.394Z</time>
      </trkpt>
      <trkpt lat="42.945212" lon="0.220233">
        <ele>1039.950889</ele>
        <time>2026-04-29T14:24:23.200Z</time>
      </trkpt>
      <trkpt lat="42.945077" lon="0.220079">
        <ele>1041.098359</ele>
        <time>2026-04-29T14:24:31.287Z</time>
      </trkpt>
      <trkpt lat="42.944578" lon="0.219704">
        <ele>1044.814061</ele>
        <time>2026-04-29T14:24:59.227Z</time>
      </trkpt>
      <trkpt lat="42.944358" lon="0.219492">
        <ele>1046.570568</ele>
        <time>2026-04-29T14:25:13.115Z</time>
      </trkpt>
      <trkpt lat="42.943731" lon="0.218717">
        <ele>1053.684049</ele>
        <time>2026-04-29T14:26:00.142Z</time>
      </trkpt>
      <trkpt lat="42.943246" lon="0.218030">
        <ele>1059.705394</ele>
        <time>2026-04-29T14:26:41.445Z</time>
      </trkpt>
      <trkpt lat="42.942822" lon="0.217557">
        <ele>1064.754703</ele>
        <time>2026-04-29T14:27:13.202Z</time>
      </trkpt>
      <trkpt lat="42.942581" lon="0.217226">
        <ele>1068.239507</ele>
        <time>2026-04-29T14:27:32.856Z</time>
      </trkpt>
      <trkpt lat="42.942235" lon="0.216570">
        <ele>1074.274923</ele>
        <time>2026-04-29T14:28:09.149Z</time>
      </trkpt>
      <trkpt lat="42.942141" lon="0.216468">
        <ele>1075.499043</ele>
        <time>2026-04-29T14:28:17.352Z</time>
      </trkpt>
      <trkpt lat="42.941929" lon="0.216313">
        <ele>1077.950961</ele>
        <time>2026-04-29T14:28:34.370Z</time>
      </trkpt>
      <trkpt lat="42.941844" lon="0.216202">
        <ele>1079.150037</ele>
        <time>2026-04-29T14:28:42.625Z</time>
      </trkpt>
      <trkpt lat="42.941519" lon="0.215202">
        <ele>1087.751641</ele>
        <time>2026-04-29T14:29:37.762Z</time>
      </trkpt>
      <trkpt lat="42.941325" lon="0.214847">
        <ele>1091.284288</ele>
        <time>2026-04-29T14:30:00.188Z</time>
      </trkpt>
      <trkpt lat="42.940702" lon="0.214106">
        <ele>1100.282652</ele>
        <time>2026-04-29T14:30:54.134Z</time>
      </trkpt>
      <trkpt lat="42.940526" lon="0.213813">
        <ele>1102.731511</ele>
        <time>2026-04-29T14:31:10.317Z</time>
      </trkpt>
      <trkpt lat="42.940217" lon="0.213437">
        <ele>1106.301914</ele>
        <time>2026-04-29T14:31:33.227Z</time>
      </trkpt>
      <trkpt lat="42.939833" lon="0.213226">
        <ele>1109.873037</ele>
        <time>2026-04-29T14:31:55.924Z</time>
      </trkpt>
      <trkpt lat="42.939349" lon="0.212794">
        <ele>1114.861388</ele>
        <time>2026-04-29T14:32:27.776Z</time>
      </trkpt>
      <trkpt lat="42.939158" lon="0.212537">
        <ele>1117.285544</ele>
        <time>2026-04-29T14:32:42.576Z</time>
      </trkpt>
      <trkpt lat="42.938764" lon="0.211856">
        <ele>1123.316741</ele>
        <time>2026-04-29T14:33:19.816Z</time>
      </trkpt>
      <trkpt lat="42.938086" lon="0.210861">
        <ele>1132.761905</ele>
        <time>2026-04-29T14:34:22.877Z</time>
      </trkpt>
      <trkpt lat="42.937543" lon="0.210208">
        <ele>1139.638231</ele>
        <time>2026-04-29T14:35:06.636Z</time>
      </trkpt>
      <trkpt lat="42.937210" lon="0.209684">
        <ele>1144.466983</ele>
        <time>2026-04-29T14:35:38.828Z</time>
      </trkpt>
      <trkpt lat="42.937047" lon="0.209549">
        <ele>1146.278972</ele>
        <time>2026-04-29T14:35:50.962Z</time>
      </trkpt>
      <trkpt lat="42.936701" lon="0.209336">
        <ele>1149.886511</ele>
        <time>2026-04-29T14:36:13.942Z</time>
      </trkpt>
      <trkpt lat="42.936581" lon="0.209206">
        <ele>1150.894079</ele>
        <time>2026-04-29T14:36:22.594Z</time>
      </trkpt>
      <trkpt lat="42.936555" lon="0.209140">
        <ele>1151.204629</ele>
        <time>2026-04-29T14:36:25.540Z</time>
      </trkpt>
      <trkpt lat="42.936509" lon="0.208777">
        <ele>1152.731100</ele>
        <time>2026-04-29T14:36:38.914Z</time>
      </trkpt>
      <trkpt lat="42.936440" lon="0.208646">
        <ele>1153.399788</ele>
        <time>2026-04-29T14:36:44.270Z</time>
      </trkpt>
      <trkpt lat="42.936334" lon="0.208618">
        <ele>1154.010835</ele>
        <time>2026-04-29T14:36:49.071Z</time>
      </trkpt>
      <trkpt lat="42.936262" lon="0.208646">
        <ele>1154.434530</ele>
        <time>2026-04-29T14:36:52.407Z</time>
      </trkpt>
      <trkpt lat="42.936063" lon="0.208801">
        <ele>1155.731067</ele>
        <time>2026-04-29T14:37:01.945Z</time>
      </trkpt>
      <trkpt lat="42.935956" lon="0.208793">
        <ele>1156.337565</ele>
        <time>2026-04-29T14:37:06.465Z</time>
      </trkpt>
      <trkpt lat="42.935634" lon="0.208422">
        <ele>1158.721778</ele>
        <time>2026-04-29T14:37:22.793Z</time>
      </trkpt>
      <trkpt lat="42.935254" lon="0.208281">
        <ele>1161.214811</ele>
        <time>2026-04-29T14:37:35.992Z</time>
      </trkpt>
      <trkpt lat="42.935103" lon="0.208181">
        <ele>1162.632850</ele>
        <time>2026-04-29T14:37:42.843Z</time>
      </trkpt>
      <trkpt lat="42.935010" lon="0.208053">
        <ele>1163.748491</ele>
        <time>2026-04-29T14:37:48.523Z</time>
      </trkpt>
      <trkpt lat="42.934805" lon="0.207525">
        <ele>1167.445909</ele>
        <time>2026-04-29T14:38:11.006Z</time>
      </trkpt>
      <trkpt lat="42.934129" lon="0.206748">
        <ele>1174.911670</ele>
        <time>2026-04-29T14:39:09.876Z</time>
      </trkpt>
      <trkpt lat="42.933906" lon="0.206216">
        <ele>1179.295709</ele>
        <time>2026-04-29T14:39:40.628Z</time>
      </trkpt>
      <trkpt lat="42.933693" lon="0.205910">
        <ele>1182.407687</ele>
        <time>2026-04-29T14:40:01.049Z</time>
      </trkpt>
      <trkpt lat="42.933438" lon="0.205691">
        <ele>1185.440050</ele>
        <time>2026-04-29T14:40:20.151Z</time>
      </trkpt>
      <trkpt lat="42.933223" lon="0.205491">
        <ele>1188.058738</ele>
        <time>2026-04-29T14:40:36.131Z</time>
      </trkpt>
      <trkpt lat="42.932604" lon="0.204793">
        <ele>1195.930827</ele>
        <time>2026-04-29T14:41:22.714Z</time>
      </trkpt>
      <trkpt lat="42.932412" lon="0.204638">
        <ele>1197.982487</ele>
        <time>2026-04-29T14:41:35.407Z</time>
      </trkpt>
      <trkpt lat="42.931315" lon="0.203940">
        <ele>1209.115112</ele>
        <time>2026-04-29T14:42:45.507Z</time>
      </trkpt>
      <trkpt lat="42.931070" lon="0.203741">
        <ele>1211.993971</ele>
        <time>2026-04-29T14:43:04.027Z</time>
      </trkpt>
      <trkpt lat="42.930863" lon="0.203505">
        <ele>1214.906965</ele>
        <time>2026-04-29T14:43:22.185Z</time>
      </trkpt>
      <trkpt lat="42.930760" lon="0.203346">
        <ele>1216.586220</ele>
        <time>2026-04-29T14:43:32.550Z</time>
      </trkpt>
      <trkpt lat="42.930304" lon="0.202499">
        <ele>1224.902099</ele>
        <time>2026-04-29T14:44:23.558Z</time>
      </trkpt>
      <trkpt lat="42.930099" lon="0.202266">
        <ele>1227.783317</ele>
        <time>2026-04-29T14:44:41.740Z</time>
      </trkpt>
      <trkpt lat="42.929927" lon="0.202122">
        <ele>1229.937957</ele>
        <time>2026-04-29T14:44:55.693Z</time>
      </trkpt>
      <trkpt lat="42.929409" lon="0.201733">
        <ele>1235.728285</ele>
        <time>2026-04-29T14:45:34.306Z</time>
      </trkpt>
      <trkpt lat="42.929019" lon="0.201484">
        <ele>1239.945212</ele>
        <time>2026-04-29T14:46:00.300Z</time>
      </trkpt>
      <trkpt lat="42.928752" lon="0.201239">
        <ele>1243.095992</ele>
        <time>2026-04-29T14:46:20.098Z</time>
      </trkpt>
      <trkpt lat="42.928111" lon="0.200289">
        <ele>1252.131174</ele>
        <time>2026-04-29T14:47:13.858Z</time>
      </trkpt>
      <trkpt lat="42.927159" lon="0.199117">
        <ele>1264.113147</ele>
        <time>2026-04-29T14:48:27.146Z</time>
      </trkpt>
      <trkpt lat="42.927065" lon="0.198867">
        <ele>1267.423524</ele>
        <time>2026-04-29T14:48:41.817Z</time>
      </trkpt>
      <trkpt lat="42.926995" lon="0.198508">
        <ele>1271.815200</ele>
        <time>2026-04-29T14:49:03.026Z</time>
      </trkpt>
      <trkpt lat="42.926342" lon="0.197779">
        <ele>1285.431403</ele>
        <time>2026-04-29T14:50:18.525Z</time>
      </trkpt>
      <trkpt lat="42.926178" lon="0.197356">
        <ele>1291.089496</ele>
        <time>2026-04-29T14:50:53.261Z</time>
      </trkpt>
      <trkpt lat="42.925994" lon="0.197123">
        <ele>1295.230697</ele>
        <time>2026-04-29T14:51:20.446Z</time>
      </trkpt>
      <trkpt lat="42.925872" lon="0.197120">
        <ele>1297.290645</ele>
        <time>2026-04-29T14:51:34.383Z</time>
      </trkpt>
      <trkpt lat="42.925848" lon="0.197120">
        <ele>1297.695815</ele>
        <time>2026-04-29T14:51:37.079Z</time>
      </trkpt>
      <trkpt lat="42.925769" lon="0.197199">
        <ele>1299.348815</ele>
        <time>2026-04-29T14:51:48.193Z</time>
      </trkpt>
      <trkpt lat="42.925679" lon="0.197325">
        <ele>1301.524722</ele>
        <time>2026-04-29T14:52:02.722Z</time>
      </trkpt>
      <trkpt lat="42.925431" lon="0.197498">
        <ele>1306.226047</ele>
        <time>2026-04-29T14:52:31.550Z</time>
      </trkpt>
      <trkpt lat="42.925133" lon="0.197639">
        <ele>1311.550298</ele>
        <time>2026-04-29T14:52:59.418Z</time>
      </trkpt>
      <trkpt lat="42.924850" lon="0.197678">
        <ele>1316.352192</ele>
        <time>2026-04-29T14:53:22.621Z</time>
      </trkpt>
      <trkpt lat="42.924777" lon="0.197726">
        <ele>1317.719993</ele>
        <time>2026-04-29T14:53:28.919Z</time>
      </trkpt>
      <trkpt lat="42.924699" lon="0.197875">
        <ele>1319.984202</ele>
        <time>2026-04-29T14:53:39.810Z</time>
      </trkpt>
      <trkpt lat="42.924703" lon="0.198045">
        <ele>1322.086809</ele>
        <time>2026-04-29T14:53:49.904Z</time>
      </trkpt>
      <trkpt lat="42.924761" lon="0.198436">
        <ele>1325.178258</ele>
        <time>2026-04-29T14:54:11.739Z</time>
      </trkpt>
      <trkpt lat="42.924780" lon="0.199190">
        <ele>1329.582257</ele>
        <time>2026-04-29T14:54:42.837Z</time>
      </trkpt>
      <trkpt lat="42.924723" lon="0.200570">
        <ele>1337.650666</ele>
        <time>2026-04-29T14:55:28.471Z</time>
      </trkpt>
      <trkpt lat="42.924698" lon="0.200783">
        <ele>1338.829053</ele>
        <time>2026-04-29T14:55:35.904Z</time>
      </trkpt>
      <trkpt lat="42.924474" lon="0.201759">
        <ele>1344.335284</ele>
        <time>2026-04-29T14:56:11.338Z</time>
      </trkpt>
      <trkpt lat="42.924411" lon="0.202466">
        <ele>1348.169433</ele>
        <time>2026-04-29T14:56:38.938Z</time>
      </trkpt>
      <trkpt lat="42.924355" lon="0.202823">
        <ele>1350.134915</ele>
        <time>2026-04-29T14:56:54.807Z</time>
      </trkpt>
      <trkpt lat="42.924269" lon="0.203119">
        <ele>1351.878528</ele>
        <time>2026-04-29T14:57:09.205Z</time>
      </trkpt>
      <trkpt lat="42.923870" lon="0.203858">
        <ele>1357.012912</ele>
        <time>2026-04-29T14:57:49.697Z</time>
      </trkpt>
      <trkpt lat="42.923668" lon="0.204359">
        <ele>1360.211138</ele>
        <time>2026-04-29T14:58:11.846Z</time>
      </trkpt>
      <trkpt lat="42.923531" lon="0.204634">
        <ele>1362.071099</ele>
        <time>2026-04-29T14:58:23.005Z</time>
      </trkpt>
      <trkpt lat="42.923271" lon="0.204969">
        <ele>1364.800890</ele>
        <time>2026-04-29T14:58:38.784Z</time>
      </trkpt>
      <trkpt lat="42.922970" lon="0.205514">
        <ele>1368.727377</ele>
        <time>2026-04-29T14:59:00.177Z</time>
      </trkpt>
      <trkpt lat="42.922801" lon="0.205720">
        <ele>1370.507147</ele>
        <time>2026-04-29T14:59:10.727Z</time>
      </trkpt>
      <trkpt lat="42.922680" lon="0.205802">
        <ele>1371.568422</ele>
        <time>2026-04-29T14:59:17.385Z</time>
      </trkpt>
      <trkpt lat="42.922239" lon="0.205969">
        <ele>1375.163950</ele>
        <time>2026-04-29T14:59:42.488Z</time>
      </trkpt>
      <trkpt lat="42.922153" lon="0.206033">
        <ele>1375.933437</ele>
        <time>2026-04-29T14:59:48.348Z</time>
      </trkpt>
      <trkpt lat="42.921727" lon="0.206507">
        <ele>1380.767843</ele>
        <time>2026-04-29T15:00:25.134Z</time>
      </trkpt>
      <trkpt lat="42.921600" lon="0.206604">
        <ele>1382.369408</ele>
        <time>2026-04-29T15:00:35.157Z</time>
      </trkpt>
      <trkpt lat="42.920790" lon="0.207042">
        <ele>1391.957938</ele>
        <time>2026-04-29T15:01:35.731Z</time>
      </trkpt>
      <trkpt lat="42.920029" lon="0.207581">
        <ele>1400.882906</ele>
        <time>2026-04-29T15:02:31.611Z</time>
      </trkpt>
      <trkpt lat="42.918852" lon="0.208495">
        <ele>1412.900462</ele>
        <time>2026-04-29T15:03:51.707Z</time>
      </trkpt>
      <trkpt lat="42.918645" lon="0.208535">
        <ele>1414.744010</ele>
        <time>2026-04-29T15:04:02.548Z</time>
      </trkpt>
      <trkpt lat="42.918348" lon="0.208479">
        <ele>1416.496345</ele>
        <time>2026-04-29T15:04:16.377Z</time>
      </trkpt>
      <trkpt lat="42.918216" lon="0.208521">
        <ele>1417.288508</ele>
        <time>2026-04-29T15:04:21.985Z</time>
      </trkpt>
      <trkpt lat="42.918003" lon="0.208692">
        <ele>1418.732637</ele>
        <time>2026-04-29T15:04:31.221Z</time>
      </trkpt>
      <trkpt lat="42.917792" lon="0.208947">
        <ele>1420.379488</ele>
        <time>2026-04-29T15:04:42.171Z</time>
      </trkpt>
      <trkpt lat="42.917179" lon="0.209588">
        <ele>1424.892122</ele>
        <time>2026-04-29T15:05:16.007Z</time>
      </trkpt>
      <trkpt lat="42.917051" lon="0.209594">
        <ele>1425.969694</ele>
        <time>2026-04-29T15:05:22.092Z</time>
      </trkpt>
      <trkpt lat="42.916977" lon="0.209522">
        <ele>1426.929720</ele>
        <time>2026-04-29T15:05:26.647Z</time>
      </trkpt>
      <trkpt lat="42.916947" lon="0.209439">
        <ele>1427.645898</ele>
        <time>2026-04-29T15:05:30.168Z</time>
      </trkpt>
      <trkpt lat="42.916972" lon="0.209270">
        <ele>1428.979956</ele>
        <time>2026-04-29T15:05:37.117Z</time>
      </trkpt>
      <trkpt lat="42.917020" lon="0.209195">
        <ele>1429.750646</ele>
        <time>2026-04-29T15:05:41.207Z</time>
      </trkpt>
      <trkpt lat="42.917499" lon="0.208688">
        <ele>1436.153912</ele>
        <time>2026-04-29T15:06:22.467Z</time>
      </trkpt>
      <trkpt lat="42.918818" lon="0.207382">
        <ele>1454.241282</ele>
        <time>2026-04-29T15:08:20.854Z</time>
      </trkpt>
      <trkpt lat="42.919513" lon="0.206493">
        <ele>1465.247594</ele>
        <time>2026-04-29T15:09:24.073Z</time>
      </trkpt>
      <trkpt lat="42.919905" lon="0.205807">
        <ele>1471.999272</ele>
        <time>2026-04-29T15:10:04.167Z</time>
      </trkpt>
      <trkpt lat="42.919995" lon="0.205695">
        <ele>1473.289473</ele>
        <time>2026-04-29T15:10:12.156Z</time>
      </trkpt>
      <trkpt lat="42.920391" lon="0.205359">
        <ele>1478.229384</ele>
        <time>2026-04-29T15:10:43.197Z</time>
      </trkpt>
      <trkpt lat="42.920657" lon="0.205006">
        <ele>1482.159515</ele>
        <time>2026-04-29T15:11:07.629Z</time>
      </trkpt>
      <trkpt lat="42.920839" lon="0.204824">
        <ele>1484.438187</ele>
        <time>2026-04-29T15:11:22.216Z</time>
      </trkpt>
      <trkpt lat="42.921113" lon="0.204466">
        <ele>1487.422734</ele>
        <time>2026-04-29T15:11:46.091Z</time>
      </trkpt>
      <trkpt lat="42.921685" lon="0.203545">
        <ele>1494.382738</ele>
        <time>2026-04-29T15:12:39.718Z</time>
      </trkpt>
      <trkpt lat="42.921939" lon="0.202623">
        <ele>1499.447156</ele>
        <time>2026-04-29T15:13:06.064Z</time>
      </trkpt>
      <trkpt lat="42.922424" lon="0.201240">
        <ele>1505.255227</ele>
        <time>2026-04-29T15:13:38.764Z</time>
      </trkpt>
      <trkpt lat="42.922451" lon="0.200987">
        <ele>1506.223629</ele>
        <time>2026-04-29T15:13:48.381Z</time>
      </trkpt>
      <trkpt lat="42.922414" lon="0.200654">
        <ele>1507.499357</ele>
        <time>2026-04-29T15:14:04.274Z</time>
      </trkpt>
      <trkpt lat="42.922340" lon="0.200344">
        <ele>1510.821014</ele>
        <time>2026-04-29T15:14:23.309Z</time>
      </trkpt>
      <trkpt lat="42.922210" lon="0.199953">
        <ele>1515.375975</ele>
        <time>2026-04-29T15:14:52.008Z</time>
      </trkpt>
      <trkpt lat="42.921832" lon="0.198980">
        <ele>1527.059477</ele>
        <time>2026-04-29T15:16:13.308Z</time>
      </trkpt>
      <trkpt lat="42.920696" lon="0.196668">
        <ele>1550.064146</ele>
        <time>2026-04-29T15:18:18.966Z</time>
      </trkpt>
      <trkpt lat="42.920566" lon="0.196330">
        <ele>1553.083030</ele>
        <time>2026-04-29T15:18:35.129Z</time>
      </trkpt>
      <trkpt lat="42.919899" lon="0.194459">
        <ele>1571.653579</ele>
        <time>2026-04-29T15:20:29.160Z</time>
      </trkpt>
      <trkpt lat="42.919803" lon="0.194083">
        <ele>1574.977504</ele>
        <time>2026-04-29T15:20:50.835Z</time>
      </trkpt>
      <trkpt lat="42.919710" lon="0.193431">
        <ele>1579.560227</ele>
        <time>2026-04-29T15:21:22.318Z</time>
      </trkpt>
      <trkpt lat="42.919679" lon="0.192404">
        <ele>1586.651590</ele>
        <time>2026-04-29T15:22:05.161Z</time>
      </trkpt>
      <trkpt lat="42.919561" lon="0.191692">
        <ele>1591.697116</ele>
        <time>2026-04-29T15:22:32.771Z</time>
      </trkpt>
      <trkpt lat="42.919408" lon="0.191251">
        <ele>1595.120068</ele>
        <time>2026-04-29T15:22:52.760Z</time>
      </trkpt>
      <trkpt lat="42.919214" lon="0.190943">
        <ele>1597.969724</ele>
        <time>2026-04-29T15:23:11.378Z</time>
      </trkpt>
      <trkpt lat="42.918502" lon="0.190284">
        <ele>1606.208577</ele>
        <time>2026-04-29T15:24:07.252Z</time>
      </trkpt>
      <trkpt lat="42.918004" lon="0.189805">
        <ele>1612.075077</ele>
        <time>2026-04-29T15:24:43.904Z</time>
      </trkpt>
      <trkpt lat="42.917460" lon="0.189089">
        <ele>1619.374966</ele>
        <time>2026-04-29T15:25:29.332Z</time>
      </trkpt>
      <trkpt lat="42.916375" lon="0.188112">
        <ele>1632.246437</ele>
        <time>2026-04-29T15:26:49.519Z</time>
      </trkpt>
      <trkpt lat="42.916236" lon="0.187940">
        <ele>1634.150966</ele>
        <time>2026-04-29T15:27:00.933Z</time>
      </trkpt>
      <trkpt lat="42.916101" lon="0.187624">
        <ele>1636.871143</ele>
        <time>2026-04-29T15:27:18.657Z</time>
      </trkpt>
      <trkpt lat="42.915948" lon="0.187288">
        <ele>1639.813031</ele>
        <time>2026-04-29T15:27:37.690Z</time>
      </trkpt>
      <trkpt lat="42.915780" lon="0.187124">
        <ele>1641.909786</ele>
        <time>2026-04-29T15:27:51.066Z</time>
      </trkpt>
      <trkpt lat="42.915589" lon="0.187082">
        <ele>1643.873979</ele>
        <time>2026-04-29T15:28:03.296Z</time>
      </trkpt>
      <trkpt lat="42.915253" lon="0.187165">
        <ele>1647.755362</ele>
        <time>2026-04-29T15:28:24.191Z</time>
      </trkpt>
      <trkpt lat="42.915103" lon="0.187151">
        <ele>1649.471728</ele>
        <time>2026-04-29T15:28:33.197Z</time>
      </trkpt>
      <trkpt lat="42.915021" lon="0.187111">
        <ele>1650.465767</ele>
        <time>2026-04-29T15:28:38.639Z</time>
      </trkpt>
      <trkpt lat="42.914646" lon="0.186743">
        <ele>1655.737609</ele>
        <time>2026-04-29T15:29:11.771Z</time>
      </trkpt>
      <trkpt lat="42.914528" lon="0.186663">
        <ele>1657.241584</ele>
        <time>2026-04-29T15:29:21.720Z</time>
      </trkpt>
      <trkpt lat="42.914334" lon="0.186596">
        <ele>1659.525994</ele>
        <time>2026-04-29T15:29:36.468Z</time>
      </trkpt>
      <trkpt lat="42.914111" lon="0.186560">
        <ele>1662.089450</ele>
        <time>2026-04-29T15:29:52.502Z</time>
      </trkpt>
      <trkpt lat="42.913688" lon="0.186620">
        <ele>1666.705615</ele>
        <time>2026-04-29T15:30:21.779Z</time>
      </trkpt>
      <trkpt lat="42.913545" lon="0.186558">
        <ele>1668.248326</ele>
        <time>2026-04-29T15:30:31.922Z</time>
      </trkpt>
      <trkpt lat="42.913451" lon="0.186420">
        <ele>1669.667536</ele>
        <time>2026-04-29T15:30:41.100Z</time>
      </trkpt>
      <trkpt lat="42.913352" lon="0.186107">
        <ele>1672.235019</ele>
        <time>2026-04-29T15:30:57.246Z</time>
      </trkpt>
      <trkpt lat="42.913009" lon="0.185015">
        <ele>1681.182801</ele>
        <time>2026-04-29T15:31:47.115Z</time>
      </trkpt>
      <trkpt lat="42.912917" lon="0.184796">
        <ele>1683.098891</ele>
        <time>2026-04-29T15:31:58.478Z</time>
      </trkpt>
      <trkpt lat="42.912815" lon="0.184645">
        <ele>1685.108828</ele>
        <time>2026-04-29T15:32:08.128Z</time>
      </trkpt>
      <trkpt lat="42.912603" lon="0.184413">
        <ele>1688.738530</ele>
        <time>2026-04-29T15:32:27.942Z</time>
      </trkpt>
      <trkpt lat="42.912405" lon="0.184256">
        <ele>1691.797468</ele>
        <time>2026-04-29T15:32:45.243Z</time>
      </trkpt>
      <trkpt lat="42.912195" lon="0.184178">
        <ele>1694.704972</ele>
        <time>2026-04-29T15:33:02.340Z</time>
      </trkpt>
      <trkpt lat="42.911952" lon="0.184157">
        <ele>1697.957888</ele>
        <time>2026-04-29T15:33:22.542Z</time>
      </trkpt>
      <trkpt lat="42.911789" lon="0.184094">
        <ele>1700.221095</ele>
        <time>2026-04-29T15:33:37.042Z</time>
      </trkpt>
      <trkpt lat="42.911692" lon="0.184016">
        <ele>1701.725034</ele>
        <time>2026-04-29T15:33:46.900Z</time>
      </trkpt>
      <trkpt lat="42.911423" lon="0.183686">
        <ele>1706.556333</ele>
        <time>2026-04-29T15:34:17.690Z</time>
      </trkpt>
      <trkpt lat="42.911329" lon="0.183586">
        <ele>1707.859362</ele>
        <time>2026-04-29T15:34:27.375Z</time>
      </trkpt>
      <trkpt lat="42.911232" lon="0.183370">
        <ele>1709.677903</ele>
        <time>2026-04-29T15:34:41.777Z</time>
      </trkpt>
      <trkpt lat="42.911105" lon="0.183016">
        <ele>1712.507155</ele>
        <time>2026-04-29T15:35:02.224Z</time>
      </trkpt>
      <trkpt lat="42.910950" lon="0.182445">
        <ele>1716.877909</ele>
        <time>2026-04-29T15:35:27.505Z</time>
      </trkpt>
      <trkpt lat="42.910552" lon="0.181793">
        <ele>1722.969876</ele>
        <time>2026-04-29T15:36:00.263Z</time>
      </trkpt>
      <trkpt lat="42.910394" lon="0.181432">
        <ele>1725.763454</ele>
        <time>2026-04-29T15:36:15.943Z</time>
      </trkpt>
      <trkpt lat="42.910244" lon="0.180960">
        <ele>1728.816698</ele>
        <time>2026-04-29T15:36:34.934Z</time>
      </trkpt>
      <trkpt lat="42.910215" lon="0.180840">
        <ele>1729.566566</ele>
        <time>2026-04-29T15:36:39.578Z</time>
      </trkpt>
      <trkpt lat="42.910208" lon="0.180812">
        <ele>1729.742136</ele>
        <time>2026-04-29T15:36:40.714Z</time>
      </trkpt>
      <trkpt lat="42.910149" lon="0.180457">
        <ele>1731.902337</ele>
        <time>2026-04-29T15:36:55.634Z</time>
      </trkpt>
      <trkpt lat="42.910062" lon="0.179927">
        <ele>1735.125497</ele>
        <time>2026-04-29T15:37:19.607Z</time>
      </trkpt>
      <trkpt lat="42.910063" lon="0.179587">
        <ele>1737.143150</ele>
        <time>2026-04-29T15:37:34.441Z</time>
      </trkpt>
      <trkpt lat="42.910154" lon="0.179338">
        <ele>1738.794504</ele>
        <time>2026-04-29T15:37:45.771Z</time>
      </trkpt>
      <trkpt lat="42.910223" lon="0.179243">
        <ele>1739.550550</ele>
        <time>2026-04-29T15:37:51.185Z</time>
      </trkpt>
      <trkpt lat="42.910407" lon="0.179141">
        <ele>1740.972141</ele>
        <time>2026-04-29T15:38:01.472Z</time>
      </trkpt>
      <trkpt lat="42.910816" lon="0.178944">
        <ele>1744.076813</ele>
        <time>2026-04-29T15:38:23.746Z</time>
      </trkpt>
      <trkpt lat="42.910937" lon="0.178827">
        <ele>1745.138208</ele>
        <time>2026-04-29T15:38:31.430Z</time>
      </trkpt>
      <trkpt lat="42.911014" lon="0.178681">
        <ele>1746.081488</ele>
        <time>2026-04-29T15:38:38.319Z</time>
      </trkpt>
      <trkpt lat="42.911048" lon="0.178549">
        <ele>1746.815111</ele>
        <time>2026-04-29T15:38:43.725Z</time>
      </trkpt>
      <trkpt lat="42.911069" lon="0.178266">
        <ele>1748.306466</ele>
        <time>2026-04-29T15:38:54.430Z</time>
      </trkpt>
      <trkpt lat="42.911015" lon="0.177440">
        <ele>1752.731062</ele>
        <time>2026-04-29T15:39:22.432Z</time>
      </trkpt>
      <trkpt lat="42.910837" lon="0.176869">
        <ele>1756.468472</ele>
        <time>2026-04-29T15:39:43.738Z</time>
      </trkpt>
      <trkpt lat="42.910761" lon="0.176660">
        <ele>1757.873790</ele>
        <time>2026-04-29T15:39:52.802Z</time>
      </trkpt>
      <trkpt lat="42.910556" lon="0.175926">
        <ele>1762.604862</ele>
        <time>2026-04-29T15:40:26.492Z</time>
      </trkpt>
      <trkpt lat="42.910541" lon="0.175599">
        <ele>1764.578108</ele>
        <time>2026-04-29T15:40:41.214Z</time>
      </trkpt>
      <trkpt lat="42.910559" lon="0.175161">
        <ele>1767.264003</ele>
        <time>2026-04-29T15:41:01.064Z</time>
      </trkpt>
      <trkpt lat="42.910559" lon="0.174969">
        <ele>1768.594305</ele>
        <time>2026-04-29T15:41:09.555Z</time>
      </trkpt>
      <trkpt lat="42.910554" lon="0.174771">
        <ele>1769.966994</ele>
        <time>2026-04-29T15:41:18.300Z</time>
      </trkpt>
      <trkpt lat="42.910548" lon="0.174576">
        <ele>1771.319274</ele>
        <time>2026-04-29T15:41:27.021Z</time>
      </trkpt>
      <trkpt lat="42.910542" lon="0.174378">
        <ele>1772.692322</ele>
        <time>2026-04-29T15:41:35.877Z</time>
      </trkpt>
      <trkpt lat="42.910518" lon="0.174184">
        <ele>1774.055521</ele>
        <time>2026-04-29T15:41:44.709Z</time>
      </trkpt>
      <trkpt lat="42.910481" lon="0.173992">
        <ele>1775.431101</ele>
        <time>2026-04-29T15:41:53.925Z</time>
      </trkpt>
      <trkpt lat="42.910432" lon="0.173811">
        <ele>1776.768116</ele>
        <time>2026-04-29T15:42:02.788Z</time>
      </trkpt>
      <trkpt lat="42.910372" lon="0.173625">
        <ele>1778.176307</ele>
        <time>2026-04-29T15:42:11.993Z</time>
      </trkpt>
      <trkpt lat="42.910318" lon="0.173462">
        <ele>1779.415841</ele>
        <time>2026-04-29T15:42:19.715Z</time>
      </trkpt>
      <trkpt lat="42.910276" lon="0.173302">
        <ele>1780.593480</ele>
        <time>2026-04-29T15:42:26.917Z</time>
      </trkpt>
      <trkpt lat="42.910257" lon="0.173116">
        <ele>1781.894690</ele>
        <time>2026-04-29T15:42:34.667Z</time>
      </trkpt>
      <trkpt lat="42.910249" lon="0.172927">
        <ele>1783.206397</ele>
        <time>2026-04-29T15:42:42.508Z</time>
      </trkpt>
      <trkpt lat="42.910246" lon="0.172737">
        <ele>1784.560158</ele>
        <time>2026-04-29T15:42:50.549Z</time>
      </trkpt>
      <trkpt lat="42.910249" lon="0.172554">
        <ele>1785.909433</ele>
        <time>2026-04-29T15:42:58.585Z</time>
      </trkpt>
      <trkpt lat="42.910258" lon="0.172363">
        <ele>1787.320250</ele>
        <time>2026-04-29T15:43:06.739Z</time>
      </trkpt>
      <trkpt lat="42.910270" lon="0.172198">
        <ele>1788.542486</ele>
        <time>2026-04-29T15:43:13.863Z</time>
      </trkpt>
      <trkpt lat="42.910277" lon="0.172007">
        <ele>1789.952154</ele>
        <time>2026-04-29T15:43:22.081Z</time>
      </trkpt>
      <trkpt lat="42.910278" lon="0.171818">
        <ele>1791.345354</ele>
        <time>2026-04-29T15:43:30.456Z</time>
      </trkpt>
      <trkpt lat="42.910279" lon="0.171649">
        <ele>1792.591134</ele>
        <time>2026-04-29T15:43:38.302Z</time>
      </trkpt>
      <trkpt lat="42.910277" lon="0.171469">
        <ele>1793.918109</ele>
        <time>2026-04-29T15:43:47.008Z</time>
      </trkpt>
      <trkpt lat="42.910278" lon="0.171274">
        <ele>1795.355536</ele>
        <time>2026-04-29T15:43:56.690Z</time>
      </trkpt>
      <trkpt lat="42.910278" lon="0.171082">
        <ele>1796.770813</ele>
        <time>2026-04-29T15:44:06.411Z</time>
      </trkpt>
      <trkpt lat="42.910276" lon="0.170910">
        <ele>1798.038826</ele>
        <time>2026-04-29T15:44:14.954Z</time>
      </trkpt>
      <trkpt lat="42.910271" lon="0.170687">
        <ele>1799.683382</ele>
        <time>2026-04-29T15:44:25.688Z</time>
      </trkpt>
      <trkpt lat="42.910262" lon="0.170503">
        <ele>1801.042711</ele>
        <time>2026-04-29T15:44:34.373Z</time>
      </trkpt>
      <trkpt lat="42.910254" lon="0.170315">
        <ele>1802.398600</ele>
        <time>2026-04-29T15:44:43.200Z</time>
      </trkpt>
      <trkpt lat="42.910246" lon="0.170130">
        <ele>1803.650286</ele>
        <time>2026-04-29T15:44:51.952Z</time>
      </trkpt>
      <trkpt lat="42.910237" lon="0.169930">
        <ele>1805.003656</ele>
        <time>2026-04-29T15:45:01.388Z</time>
      </trkpt>
      <trkpt lat="42.910232" lon="0.169809">
        <ele>1805.822204</ele>
        <time>2026-04-29T15:45:06.951Z</time>
      </trkpt>
      <trkpt lat="42.910227" lon="0.169648">
        <ele>1806.910593</ele>
        <time>2026-04-29T15:45:14.234Z</time>
      </trkpt>
      <trkpt lat="42.910207" lon="0.169467">
        <ele>1808.146922</ele>
        <time>2026-04-29T15:45:22.173Z</time>
      </trkpt>
      <trkpt lat="42.910173" lon="0.169332">
        <ele>1809.111129</ele>
        <time>2026-04-29T15:45:28.440Z</time>
      </trkpt>
      <trkpt lat="42.909909" lon="0.168670">
        <ele>1814.202180</ele>
        <time>2026-04-29T15:46:01.138Z</time>
      </trkpt>
      <trkpt lat="42.909766" lon="0.168113">
        <ele>1818.188668</ele>
        <time>2026-04-29T15:46:24.493Z</time>
      </trkpt>
      <trkpt lat="42.909640" lon="0.167896">
        <ele>1819.980631</ele>
        <time>2026-04-29T15:46:35.248Z</time>
      </trkpt>
      <trkpt lat="42.909517" lon="0.167602">
        <ele>1822.141845</ele>
        <time>2026-04-29T15:46:48.582Z</time>
      </trkpt>
      <trkpt lat="42.909440" lon="0.167269">
        <ele>1824.370842</ele>
        <time>2026-04-29T15:47:02.776Z</time>
      </trkpt>
      <trkpt lat="42.909408" lon="0.166266">
        <ele>1830.779206</ele>
        <time>2026-04-29T15:47:45.594Z</time>
      </trkpt>
      <trkpt lat="42.909421" lon="0.166015">
        <ele>1832.385376</ele>
        <time>2026-04-29T15:47:56.515Z</time>
      </trkpt>
      <trkpt lat="42.909530" lon="0.165428">
        <ele>1836.242837</ele>
        <time>2026-04-29T15:48:23.038Z</time>
      </trkpt>
      <trkpt lat="42.909555" lon="0.165004">
        <ele>1838.946887</ele>
        <time>2026-04-29T15:48:41.712Z</time>
      </trkpt>
      <trkpt lat="42.909640" lon="0.164352">
        <ele>1843.156734</ele>
        <time>2026-04-29T15:49:10.398Z</time>
      </trkpt>
      <trkpt lat="42.909627" lon="0.164185">
        <ele>1844.224315</ele>
        <time>2026-04-29T15:49:17.428Z</time>
      </trkpt>
      <trkpt lat="42.909509" lon="0.163644">
        <ele>1847.812658</ele>
        <time>2026-04-29T15:49:39.965Z</time>
      </trkpt>
      <trkpt lat="42.909453" lon="0.163180">
        <ele>1850.832506</ele>
        <time>2026-04-29T15:49:58.130Z</time>
      </trkpt>
      <trkpt lat="42.909360" lon="0.162853">
        <ele>1853.139286</ele>
        <time>2026-04-29T15:50:11.634Z</time>
      </trkpt>
      <trkpt lat="42.909266" lon="0.162679">
        <ele>1854.561092</ele>
        <time>2026-04-29T15:50:20.077Z</time>
      </trkpt>
      <trkpt lat="42.908991" lon="0.161987">
        <ele>1859.738382</ele>
        <time>2026-04-29T15:50:52.173Z</time>
      </trkpt>
      <trkpt lat="42.908903" lon="0.161685">
        <ele>1861.875747</ele>
        <time>2026-04-29T15:51:06.424Z</time>
      </trkpt>
      <trkpt lat="42.908711" lon="0.160841">
        <ele>1867.891536</ele>
        <time>2026-04-29T15:51:49.164Z</time>
      </trkpt>
      <trkpt lat="42.908528" lon="0.159762">
        <ele>1876.091931</ele>
        <time>2026-04-29T15:52:42.059Z</time>
      </trkpt>
      <trkpt lat="42.908467" lon="0.159545">
        <ele>1877.812888</ele>
        <time>2026-04-29T15:52:52.633Z</time>
      </trkpt>
      <trkpt lat="42.908324" lon="0.159211">
        <ele>1880.677367</ele>
        <time>2026-04-29T15:53:09.945Z</time>
      </trkpt>
      <trkpt lat="42.908207" lon="0.159007">
        <ele>1882.595774</ele>
        <time>2026-04-29T15:53:21.453Z</time>
      </trkpt>
      <trkpt lat="42.907921" lon="0.158653">
        <ele>1886.495692</ele>
        <time>2026-04-29T15:53:44.431Z</time>
      </trkpt>
      <trkpt lat="42.907621" lon="0.158144">
        <ele>1891.327781</ele>
        <time>2026-04-29T15:54:12.373Z</time>
      </trkpt>
      <trkpt lat="42.907461" lon="0.157933">
        <ele>1893.574045</ele>
        <time>2026-04-29T15:54:25.889Z</time>
      </trkpt>
      <trkpt lat="42.907243" lon="0.157329">
        <ele>1898.554231</ele>
        <time>2026-04-29T15:54:57.684Z</time>
      </trkpt>
      <trkpt lat="42.907020" lon="0.156995">
        <ele>1901.896845</ele>
        <time>2026-04-29T15:55:20.023Z</time>
      </trkpt>
      <trkpt lat="42.906950" lon="0.156842">
        <ele>1903.263305</ele>
        <time>2026-04-29T15:55:29.100Z</time>
      </trkpt>
      <trkpt lat="42.906705" lon="0.156123">
        <ele>1909.359037</ele>
        <time>2026-04-29T15:56:08.876Z</time>
      </trkpt>
      <trkpt lat="42.906658" lon="0.155916">
        <ele>1911.024938</ele>
        <time>2026-04-29T15:56:19.637Z</time>
      </trkpt>
      <trkpt lat="42.906634" lon="0.155602">
        <ele>1913.451756</ele>
        <time>2026-04-29T15:56:35.123Z</time>
      </trkpt>
      <trkpt lat="42.906561" lon="0.155340">
        <ele>1915.606539</ele>
        <time>2026-04-29T15:56:48.448Z</time>
      </trkpt>
      <trkpt lat="42.906520" lon="0.155142">
        <ele>1917.188216</ele>
        <time>2026-04-29T15:56:57.874Z</time>
      </trkpt>
      <trkpt lat="42.906501" lon="0.154729">
        <ele>1920.369202</ele>
        <time>2026-04-29T15:57:16.029Z</time>
      </trkpt>
      <trkpt lat="42.906529" lon="0.154114">
        <ele>1924.549929</ele>
        <time>2026-04-29T15:57:41.509Z</time>
      </trkpt>
      <trkpt lat="42.906592" lon="0.153932">
        <ele>1925.872042</ele>
        <time>2026-04-29T15:57:49.639Z</time>
      </trkpt>
      <trkpt lat="42.906657" lon="0.153888">
        <ele>1926.522593</ele>
        <time>2026-04-29T15:57:53.546Z</time>
      </trkpt>
      <trkpt lat="42.906719" lon="0.153891">
        <ele>1927.078883</ele>
        <time>2026-04-29T15:57:56.983Z</time>
      </trkpt>
      <trkpt lat="42.906765" lon="0.153949">
        <ele>1927.640350</ele>
        <time>2026-04-29T15:58:00.439Z</time>
      </trkpt>
      <trkpt lat="42.906785" lon="0.154048">
        <ele>1928.314844</ele>
        <time>2026-04-29T15:58:04.501Z</time>
      </trkpt>
      <trkpt lat="42.906753" lon="0.154379">
        <ele>1930.507652</ele>
        <time>2026-04-29T15:58:17.964Z</time>
      </trkpt>
      <trkpt lat="42.906736" lon="0.154556">
        <ele>1931.680111</ele>
        <time>2026-04-29T15:58:25.439Z</time>
      </trkpt>
      <trkpt lat="42.906752" lon="0.154692">
        <ele>1932.584786</ele>
        <time>2026-04-29T15:58:31.401Z</time>
      </trkpt>
      <trkpt lat="42.906802" lon="0.154809">
        <ele>1933.474450</ele>
        <time>2026-04-29T15:58:37.194Z</time>
      </trkpt>
      <trkpt lat="42.907331" lon="0.155536">
        <ele>1940.877035</ele>
        <time>2026-04-29T15:59:22.892Z</time>
      </trkpt>
      <trkpt lat="42.907571" lon="0.155637">
        <ele>1943.671634</ele>
        <time>2026-04-29T15:59:39.891Z</time>
      </trkpt>
      <trkpt lat="42.907809" lon="0.155891">
        <ele>1947.033104</ele>
        <time>2026-04-29T16:00:00.493Z</time>
      </trkpt>
      <trkpt lat="42.908040" lon="0.156214">
        <ele>1950.712457</ele>
        <time>2026-04-29T16:00:23.812Z</time>
      </trkpt>
      <trkpt lat="42.908163" lon="0.156239">
        <ele>1952.096227</ele>
        <time>2026-04-29T16:00:32.700Z</time>
      </trkpt>
      <trkpt lat="42.908332" lon="0.156186">
        <ele>1954.025753</ele>
        <time>2026-04-29T16:00:45.122Z</time>
      </trkpt>
      <trkpt lat="42.908464" lon="0.156260">
        <ele>1955.613590</ele>
        <time>2026-04-29T16:00:55.145Z</time>
      </trkpt>
      <trkpt lat="42.908576" lon="0.156330">
        <ele>1956.984252</ele>
        <time>2026-04-29T16:01:03.431Z</time>
      </trkpt>
      <trkpt lat="42.908779" lon="0.156398">
        <ele>1959.264963</ele>
        <time>2026-04-29T16:01:17.384Z</time>
      </trkpt>
      <trkpt lat="42.908953" lon="0.156400">
        <ele>1961.154700</ele>
        <time>2026-04-29T16:01:28.450Z</time>
      </trkpt>
      <trkpt lat="42.909303" lon="0.156124">
        <ele>1965.544217</ele>
        <time>2026-04-29T16:01:56.217Z</time>
      </trkpt>
      <trkpt lat="42.909554" lon="0.155993">
        <ele>1968.462495</ele>
        <time>2026-04-29T16:02:14.558Z</time>
      </trkpt>
      <trkpt lat="42.909702" lon="0.156022">
        <ele>1970.086269</ele>
        <time>2026-04-29T16:02:24.718Z</time>
      </trkpt>
      <trkpt lat="42.909841" lon="0.156182">
        <ele>1972.060733</ele>
        <time>2026-04-29T16:02:36.912Z</time>
      </trkpt>
      <trkpt lat="42.909943" lon="0.156259">
        <ele>1973.326519</ele>
        <time>2026-04-29T16:02:44.422Z</time>
      </trkpt>
      <trkpt lat="42.910056" lon="0.156247">
        <ele>1974.557425</ele>
        <time>2026-04-29T16:02:51.531Z</time>
      </trkpt>
      <trkpt lat="42.910116" lon="0.156193">
        <ele>1975.337868</ele>
        <time>2026-04-29T16:02:56.202Z</time>
      </trkpt>
      <trkpt lat="42.910158" lon="0.156062">
        <ele>1976.475332</ele>
        <time>2026-04-29T16:03:02.619Z</time>
      </trkpt>
      <trkpt lat="42.910159" lon="0.155984">
        <ele>1977.059747</ele>
        <time>2026-04-29T16:03:06.281Z</time>
      </trkpt>
      <trkpt lat="42.910116" lon="0.155840">
        <ele>1977.958964</ele>
        <time>2026-04-29T16:03:13.260Z</time>
      </trkpt>
      <trkpt lat="42.910028" lon="0.155694">
        <ele>1979.052319</ele>
        <time>2026-04-29T16:03:21.516Z</time>
      </trkpt>
      <trkpt lat="42.909910" lon="0.155556">
        <ele>1980.278964</ele>
        <time>2026-04-29T16:03:30.571Z</time>
      </trkpt>
      <trkpt lat="42.909625" lon="0.155345">
        <ele>1982.838542</ele>
        <time>2026-04-29T16:03:48.324Z</time>
      </trkpt>
      <trkpt lat="42.909311" lon="0.154871">
        <ele>1986.534230</ele>
        <time>2026-04-29T16:04:12.939Z</time>
      </trkpt>
      <trkpt lat="42.909120" lon="0.154638">
        <ele>1988.556400</ele>
        <time>2026-04-29T16:04:25.318Z</time>
      </trkpt>
      <trkpt lat="42.908867" lon="0.154609">
        <ele>1990.560852</ele>
        <time>2026-04-29T16:04:37.583Z</time>
      </trkpt>
      <trkpt lat="42.908775" lon="0.154560">
        <ele>1991.360864</ele>
        <time>2026-04-29T16:04:42.290Z</time>
      </trkpt>
      <trkpt lat="42.908688" lon="0.154428">
        <ele>1992.506068</ele>
        <time>2026-04-29T16:04:48.534Z</time>
      </trkpt>
      <trkpt lat="42.908561" lon="0.154097">
        <ele>1994.915887</ele>
        <time>2026-04-29T16:05:01.940Z</time>
      </trkpt>
      <trkpt lat="42.908482" lon="0.153905">
        <ele>1996.336125</ele>
        <time>2026-04-29T16:05:09.717Z</time>
      </trkpt>
      <trkpt lat="42.908422" lon="0.153679">
        <ele>1997.886425</ele>
        <time>2026-04-29T16:05:18.418Z</time>
      </trkpt>
      <trkpt lat="42.908414" lon="0.153373">
        <ele>1999.861121</ele>
        <time>2026-04-29T16:05:30.702Z</time>
      </trkpt>
      <trkpt lat="42.908450" lon="0.153206">
        <ele>2000.983807</ele>
        <time>2026-04-29T16:05:38.279Z</time>
      </trkpt>
      <trkpt lat="42.908760" lon="0.152379">
        <ele>2006.975127</ele>
        <time>2026-04-29T16:06:25.173Z</time>
      </trkpt>
      <trkpt lat="42.908892" lon="0.151707">
        <ele>2012.490419</ele>
        <time>2026-04-29T16:06:59.105Z</time>
      </trkpt>
      <trkpt lat="42.909010" lon="0.151305">
        <ele>2015.927203</ele>
        <time>2026-04-29T16:07:19.627Z</time>
      </trkpt>
      <trkpt lat="42.909002" lon="0.151120">
        <ele>2017.397856</ele>
        <time>2026-04-29T16:07:28.524Z</time>
      </trkpt>
      <trkpt lat="42.908863" lon="0.150589">
        <ele>2021.872730</ele>
        <time>2026-04-29T16:07:56.319Z</time>
      </trkpt>
      <trkpt lat="42.908777" lon="0.150348">
        <ele>2024.000137</ele>
        <time>2026-04-29T16:08:09.577Z</time>
      </trkpt>
      <trkpt lat="42.908628" lon="0.150047">
        <ele>2026.879071</ele>
        <time>2026-04-29T16:08:27.153Z</time>
      </trkpt>
      <trkpt lat="42.908602" lon="0.149919">
        <ele>2027.922286</ele>
        <time>2026-04-29T16:08:33.132Z</time>
      </trkpt>
      <trkpt lat="42.908578" lon="0.149649">
        <ele>2030.058342</ele>
        <time>2026-04-29T16:08:44.819Z</time>
      </trkpt>
      <trkpt lat="42.908684" lon="0.149083">
        <ele>2034.646541</ele>
        <time>2026-04-29T16:09:10.953Z</time>
      </trkpt>
      <trkpt lat="42.908678" lon="0.149026">
        <ele>2035.098800</ele>
        <time>2026-04-29T16:09:13.616Z</time>
      </trkpt>
      <trkpt lat="42.908630" lon="0.148942">
        <ele>2035.935531</ele>
        <time>2026-04-29T16:09:18.693Z</time>
      </trkpt>
      <trkpt lat="42.908562" lon="0.148901">
        <ele>2036.732607</ele>
        <time>2026-04-29T16:09:23.540Z</time>
      </trkpt>
      <trkpt lat="42.908428" lon="0.148888">
        <ele>2038.173063</ele>
        <time>2026-04-29T16:09:32.423Z</time>
      </trkpt>
      <trkpt lat="42.908043" lon="0.148888">
        <ele>2042.301278</ele>
        <time>2026-04-29T16:09:58.318Z</time>
      </trkpt>
      <trkpt lat="42.907673" lon="0.148720">
        <ele>2046.584484</ele>
        <time>2026-04-29T16:10:24.658Z</time>
      </trkpt>
      <trkpt lat="42.907454" lon="0.148745">
        <ele>2049.281187</ele>
        <time>2026-04-29T16:10:39.814Z</time>
      </trkpt>
      <trkpt lat="42.907342" lon="0.148718">
        <ele>2050.676787</ele>
        <time>2026-04-29T16:10:47.798Z</time>
      </trkpt>
      <trkpt lat="42.906908" lon="0.148364">
        <ele>2056.880415</ele>
        <time>2026-04-29T16:11:26.878Z</time>
      </trkpt>
      <trkpt lat="42.906600" lon="0.148207">
        <ele>2060.914688</ele>
        <time>2026-04-29T16:11:52.155Z</time>
      </trkpt>
      <trkpt lat="42.906433" lon="0.148189">
        <ele>2062.970303</ele>
        <time>2026-04-29T16:12:04.454Z</time>
      </trkpt>
      <trkpt lat="42.906142" lon="0.148310">
        <ele>2066.703075</ele>
        <time>2026-04-29T16:12:25.618Z</time>
      </trkpt>
      <trkpt lat="42.906042" lon="0.148281">
        <ele>2067.938960</ele>
        <time>2026-04-29T16:12:32.436Z</time>
      </trkpt>
      <trkpt lat="42.906009" lon="0.148228">
        <ele>2068.460401</ele>
        <time>2026-04-29T16:12:35.610Z</time>
      </trkpt>
      <trkpt lat="42.906004" lon="0.148123">
        <ele>2069.249158</ele>
        <time>2026-04-29T16:12:40.802Z</time>
      </trkpt>
      <trkpt lat="42.906059" lon="0.148030">
        <ele>2070.145167</ele>
        <time>2026-04-29T16:12:46.299Z</time>
      </trkpt>
      <trkpt lat="42.906176" lon="0.147959">
        <ele>2071.455507</ele>
        <time>2026-04-29T16:12:54.532Z</time>
      </trkpt>
      <trkpt lat="42.906466" lon="0.147847">
        <ele>2074.539845</ele>
        <time>2026-04-29T16:13:13.611Z</time>
      </trkpt>
      <trkpt lat="42.906940" lon="0.147729">
        <ele>2079.470767</ele>
        <time>2026-04-29T16:13:42.689Z</time>
      </trkpt>
      <trkpt lat="42.907335" lon="0.147590">
        <ele>2083.645338</ele>
        <time>2026-04-29T16:14:04.625Z</time>
      </trkpt>
      <trkpt lat="42.907372" lon="0.147566">
        <ele>2084.064561</ele>
        <time>2026-04-29T16:14:07.106Z</time>
      </trkpt>
      <trkpt lat="42.907618" lon="0.147308">
        <ele>2086.252988</ele>
        <time>2026-04-29T16:14:27.128Z</time>
      </trkpt>
      <trkpt lat="42.908497" lon="0.146187">
        <ele>2086.252988</ele>
        <time>2026-04-29T16:15:59.500Z</time>
      </trkpt>
      <trkpt lat="42.908574" lon="0.146047">
        <ele>2086.252988</ele>
        <time>2026-04-29T16:16:08.278Z</time>
      </trkpt>
      <trkpt lat="42.908604" lon="0.145916">
        <ele>2086.252988</ele>
        <time>2026-04-29T16:16:15.079Z</time>
      </trkpt>
      <trkpt lat="42.908576" lon="0.145709">
        <ele>2086.252988</ele>
        <time>2026-04-29T16:16:24.761Z</time>
      </trkpt>
      <trkpt lat="42.908375" lon="0.145268">
        <ele>2086.252988</ele>
        <time>2026-04-29T16:16:46.209Z</time>
      </trkpt>
    </trkseg>
  </trk>
</gpx>